Weather Data for the Salt Lake City International Airport,,,,,,,,,,,,,,,,,,,,
"Obtained January 22, 2024",,,,,,,,,,,,,,,,,,,,
,,,,,,,,,,,,,,,,,,,,
D/T: Date/Time (Local Time),,,,,,,,,,,,,,,,,,,,
T: Air Temperature (Fahrenheit),,,,,,,,,,,,,,,,,,,,
DPT: Dew Point Temperature (Fahrenheit),,,,,,,,,,,,,,,,,,,,
RH: Relative Humidity (%),,,,,,,,,,,,,,,,,,,,
WC: Wind Chill (Fahrenheit),,,,,,,,,,,,,,,,,,,,
WD: Wind Direction,,,,,,,,,,,,,,,,,,,,
WS: Wind Speed (mph),,,,,,,,,,,,,,,,,,,,
Vis: Visibility (miles),,,,,,,,,,,,,,,,,,,,
Wx: Weather during time of observation,,,,,,,,,,,,,,,,,,,,
Clds: Cloud cover,,,,,,,,,,,,,,,,,,,,
SLP: Sea Level Pressure (inHg),,,,,,,,,,,,,,,,,,,,
Press: Actual Pressure at the Station (inHg),,,,,,,,,,,,,,,,,,,,
Alt: Altimeter setting (inHg),,,,,,,,,,,,,,,,,,,,
1hrprecip: Total precipitation in the last 1 hour (inches),,,,,,,,,,,,,,,,,,,,
3hrprecip: Total precipitation in the last 3 hours (inches),,,,,,,,,,,,,,,,,,,,
6hrprecip: Total precipitation in the last 6 hours (inches),,,,,,,,,,,,,,,,,,,,
24hrprecip: Total precipitation in the last 24 hours (inches),,,,,,,,,,,,,,,,,,,,
6hrmax: Maximum Temperature over the last 6 hours,,,,,,,,,,,,,,,,,,,,
6hrmin: Minimum Temperature over the last 6 hours,,,,,,,,,,,,,,,,,,,,
24hrmax: Maximum Temperature over the last 24 hours,,,,,,,,,,,,,,,,,,,,
24hrmax: Minimum Temperature over the last 24 hours,,,,,,,,,,,,,,,,,,,,
,,,,,,,,,,,,,,,,,,,,
D/T,T,DPT,RH,WC,WD,WS,Vis,Wx,Clds,SLP,Press,Alt,1hrprecip,3hrprecip,6hrprecip,24hrprecip,6hrmax,6hrmin,24hrmax,24hrmin
"Jan 22, 11:15 am",45,37,76,,N,0,10,,OVC065,,25.59,29.88,,,,,,,,
"Jan 22, 11:10 am",45,37,76,,SSW,3,10,,OVC065,,25.59,29.88,,,,,,,,
"Jan 22, 11:05 am",45,37,76,40,SE,8,10,,OVC065,,25.59,29.88,,,,,,,,
"Jan 22, 11:00 am",45,37,76,40,SE,8,10,,OVC065,,25.59,29.88,,,,,,,,
"Jan 22, 10:55 am",45,37,76,40,SSE,9,10,,OVC065,,25.59,29.88,,,,,,,,
"Jan 22, 10:54 am",44,37,76,39,SSE,9,10,,BKN065 BKN180,1011.1,25.59,29.88,,,,,44,33,,
"Jan 22, 10:50 am",45,37,76,40,SSE,9,10,,OVC065,,25.59,29.88,,,,,,,,
"Jan 22, 10:45 am",43,37,81,37,SSE,9,10,,OVC065,,25.59,29.88,,,,,,,,
"Jan 22, 10:35 am",43,37,81,37,SSE,9,10,,OVC060,,25.59,29.88,,,,,,,,
"Jan 22, 10:30 am",43,37,81,37,SSE,9,10,,OVC065,,25.59,29.88,,,,,,,,
"Jan 22, 10:25 am",43,37,79,38,SSE,9,10,,OVC065,,25.59,29.88,,,,,,,,
"Jan 22, 10:20 am",43,37,79,38,SSE,8,10,,OVC065,,25.59,29.88,,,,,,,,
"Jan 22, 10:15 am",43,36,76,38,S,9,10,,OVC065,,25.59,29.88,,,,,,,,
"Jan 22, 10:10 am",43,36,76,37,SSE,12,10,,OVC065,,25.59,29.88,,,,,,,,
"Jan 22, 10:05 am",42,35,76,36,S,12,10,,OVC065,,25.59,29.88,,,,,,,,
"Jan 22, 10:00 am",41,35,79,34,S,13,10,,OVC065,,25.58,29.87,,,,,,,,
"Jan 22, 9:55 am",40,35,83,34,SSE,8,10,,OVC065,,25.58,29.87,,,,,,,,
"Jan 22, 9:54 am",40,35,83,34,SSE,8,10,,BKN065 BKN180,1011,25.58,29.87,,,,,,,,
"Jan 22, 9:50 am",40,35,83,34,SSE,8,10,,BKN065 BKN180,1011,25.58,29.87,,,,,,,,
"Jan 22, 9:45 am",40,35,83,35,S,7,10,,OVC065,,25.58,29.87,,,,,,,,
"Jan 22, 9:40 am",39,35,86,34,S,7,9,,OVC065,,25.58,29.87,,,,,,,,
"Jan 22, 9:35 am",39,36,87,34,S,7,7,,OVC065,,25.58,29.87,,,,,,,,
"Jan 22, 9:30 am",37,36,93,32,S,7,6,Mist,OVC065,,25.58,29.87,,,,,,,,
"Jan 22, 9:25 am",37,36,93,,SSE,5,6,Mist,OVC060,,25.58,29.87,,,,,,,,
"Jan 22, 9:20 am",37,36,93,,SSE,5,6,Mist,OVC060,,25.58,29.87,,,,,,,,
"Jan 22, 9:15 am",37,34,87,,SE,5,6,Mist,OVC060,,25.58,29.87,,,,,,,,
"Jan 22, 9:10 am",37,34,87,,SE,3,6,Mist,OVC060,,25.58,29.87,,,,,,,,
"Jan 22, 9:05 am",37,34,87,,SE,5,6,Mist,OVC060,,25.58,29.87,,,,,,,,
"Jan 22, 9:00 am",37,36,93,,ESE,3,6,Mist,OVC060,,25.58,29.87,,,,,,,,
"Jan 22, 8:55 am",37,36,93,,S,5,6,Mist,OVC060,,25.59,29.88,,,,,,,,
"Jan 22, 8:54 am",37,35,92,,S,5,10,,BKN060 BKN200,1011.5,25.59,29.88,,,,,,,,
"Jan 22, 8:50 am",36,34,93,,N,0,10,,BKN060,,25.59,29.88,,,,,,,,
"Jan 22, 8:45 am",36,34,93,,N,0,6,Mist,OVC060,,25.59,29.88,,,,,,,,
"Jan 22, 8:40 am",37,36,93,,SSE,3,7,,OVC060,,25.59,29.88,,,,,,,,
"Jan 22, 8:35 am",36,34,93,30,S,7,7,,OVC060,,25.59,29.88,,,,,,,,
"Jan 22, 8:30 am",36,34,93,31,SE,6,7,,OVC060,,25.59,29.88,,,,,,,,
"Jan 22, 8:25 am",36,34,93,31,SE,6,7,,OVC060,,25.59,29.88,,,,,,,,
"Jan 22, 8:20 am",36,34,93,,SE,5,8,,OVC060,,25.58,29.87,,,,,,,,
"Jan 22, 8:15 am",36,32,87,,SE,5,8,,OVC060,,25.58,29.87,,,,,,,,
"Jan 22, 8:10 am",36,32,87,,SE,5,7,,OVC060,,25.58,29.87,,,,,,,,
"Jan 22, 8:05 am",36,32,87,,ESE,5,7,,BKN060,,25.58,29.87,,,,,,,,
"Jan 22, 8:00 am",34,32,93,,ESE,5,6,Mist,BKN060,,25.58,29.87,,,,,,,,
"Jan 22, 7:55 am",34,34,100,,ESE,5,6,Mist,BKN060,,25.58,29.87,,,,,,,,
"Jan 22, 7:54 am",34,33,96,,ESE,5,10,,BKN060 BKN200,1011.4,25.58,29.87,,,,,,,,
"Jan 22, 7:50 am",34,33,96,,SE,5,6,Mist,SCT060,1011.3,25.58,29.87,,,,,,,,
"Jan 22, 7:45 am",34,32,92,,ESE,5,6,Mist,FEW065,,25.57,29.86,,,,,,,,
"Jan 22, 7:40 am",34,32,92,,ESE,3,6,Mist,CLR,,25.57,29.86,,,,,,,,
"Jan 22, 7:35 am",34,32,92,,SE,3,6,Mist,CLR,,25.57,29.86,,,,,,,,
"Jan 22, 7:30 am",33,31,92,,SE,5,6,Mist,CLR,,25.57,29.86,,,,,,,,
"Jan 22, 7:25 am",34,31,88,28,ESE,7,5,Mist,CLR,,25.57,29.86,,,,,,,,
"Jan 22, 7:20 am",34,31,88,29,ESE,6,5,Mist,CLR,,25.57,29.86,,,,,,,,
"Jan 22, 7:15 am",34,31,88,29,ESE,6,6,Mist,CLR,,25.56,29.85,,,,,,,,
"Jan 22, 7:10 am",34,31,88,28,ESE,7,6,Mist,CLR,,25.56,29.85,,,,,,,,
"Jan 22, 7:05 am",34,32,92,29,SSE,6,6,Mist,CLR,,25.56,29.85,,,,,,,,
"Jan 22, 7:00 am",34,32,92,29,SSE,6,6,Mist,CLR,,25.56,29.85,,,,,,,,
"Jan 22, 6:55 am",34,32,92,29,SSE,6,6,Mist,CLR,,25.56,29.85,,,,,,,,
"Jan 22, 6:54 am",34,32,92,29,SSE,6,9,,FEW050 FEW190,1010.7,25.56,29.85,,,,,,,,
"Jan 22, 6:50 am",34,33,96,,S,5,9,,FEW050 FEW190,1010.6,25.56,29.85,,,,,,,,
"Jan 22, 6:45 am",34,32,92,,S,3,7,,CLR,,25.55,29.84,,,,,,,,
"Jan 22, 6:40 am",33,31,92,,SE,3,6,Mist,CLR,,25.55,29.84,,,,,,,,
"Jan 22, 6:35 am",34,32,92,,ESE,5,6,Mist,CLR,,25.55,29.84,,,,,,,,
"Jan 22, 6:30 am",34,32,92,29,S,6,6,Mist,CLR,,25.55,29.84,,,,,,,,
"Jan 22, 6:25 am",34,32,92,29,S,6,5,Mist,CLR,,25.55,29.84,,,,,,,,
"Jan 22, 6:20 am",34,32,92,29,S,6,5,Mist,CLR,,25.55,29.83,,,,,,,,
"Jan 22, 6:15 am",33,32,96,28,S,6,5,Mist,CLR,,25.55,29.83,,,,,,,,
"Jan 22, 6:10 am",33,32,96,28,S,6,5,Mist,CLR,,25.55,29.83,,,,,,,,
"Jan 22, 6:05 am",34,32,93,,S,5,5,Mist,CLR,,25.55,29.83,,,,,,,,
"Jan 22, 6:00 am",34,32,92,,SSE,5,6,Mist,CLR,,25.55,29.83,,,,,,,,
"Jan 22, 5:55 am",34,32,92,29,S,6,6,Mist,CLR,,25.55,29.83,,,,,,,,
"Jan 22, 5:54 am",34,32,92,28,SSE,7,9,,FEW040 FEW055 FEW080,1010.3,25.55,29.83,,,,,,,,
"Jan 22, 5:50 am",34,32,92,28,SE,7,8,,FEW040 FEW080 FEW180,1010.3,25.55,29.83,,,,,,,,
"Jan 22, 5:45 am",34,32,92,27,SE,8,8,,CLR,,25.55,29.83,,,,,,,,
"Jan 22, 5:40 am",33,32,96,27,SE,7,8,,CLR,,25.55,29.84,,,,,,,,
"Jan 22, 5:35 am",33,32,96,26,SE,8,8,,CLR,,25.55,29.84,,,,,,,,
"Jan 22, 5:30 am",33,31,92,27,SE,7,8,,CLR,,25.55,29.84,,,,,,,,
"Jan 22, 5:25 am",33,31,92,26,SE,8,8,,CLR,,25.55,29.84,,,,,,,,
"Jan 22, 5:20 am",33,31,92,26,ESE,8,8,,CLR,,25.55,29.84,,,,,,,,
"Jan 22, 5:15 am",33,32,96,27,SE,7,8,,CLR,,25.55,29.84,,,,,,,,
"Jan 22, 5:10 am",33,32,96,28,SE,6,8,,CLR,,25.55,29.84,,,,,,,,
"Jan 22, 5:05 am",34,32,93,29,SE,6,8,,FEW055,,25.55,29.84,,,,,,,,
"Jan 22, 5:00 am",34,33,96,,SE,5,8,,FEW055,,25.55,29.84,,,,,,,,
"Jan 22, 4:55 am",34,34,100,,SE,5,4,Mist,FEW050,,25.56,29.85,,,,,,,,
"Jan 22, 4:54 am",34,33,96,,SE,5,8,,FEW038 SCT055 SCT075,1010.4,25.56,29.85,,,,0.03,41,34,,
"Jan 22, 4:50 am",34,34,100,,SE,5,8,,FEW038 SCT055 SCT075,1010.4,25.56,29.85,,,,0.03,41,34,,
"Jan 22, 4:45 am",35,34,96,,SE,5,7,,FEW055,,25.56,29.85,,,,,,,,
"Jan 22, 4:40 am",34,34,100,,SE,5,7,,CLR,,25.56,29.85,,,,,,,,
"Jan 22, 4:35 am",36,34,93,,ESE,5,7,,CLR,,25.56,29.85,,,,,,,,
"Jan 22, 4:30 am",34,34,100,,ESE,5,7,,CLR,,25.56,29.85,,,,,,,,
"Jan 22, 4:25 am",35,33,92,30,ESE,6,7,,CLR,,25.56,29.85,,,,,,,,
"Jan 22, 4:20 am",34,34,100,29,ESE,6,7,,CLR,,25.56,29.85,,,,,,,,
"Jan 22, 4:15 am",36,34,93,31,ESE,6,7,,CLR,,25.56,29.85,,,,,,,,
"Jan 22, 4:10 am",34,33,96,29,ESE,6,7,,CLR,,25.56,29.85,,,,,,,,
"Jan 22, 4:05 am",34,34,100,29,SE,6,7,,CLR,,25.56,29.85,,,,,,,,
"Jan 22, 4:00 am",34,33,96,29,SE,6,7,,CLR,,25.56,29.85,,,,,,,,
"Jan 22, 3:55 am",34,33,96,29,SE,6,7,,CLR,,25.56,29.85,,,,,,,,
"Jan 22, 3:54 am",34,33,96,29,SE,6,7,,FEW038 FEW200,1010.5,25.56,29.85,,,,,,,,
"Jan 22, 3:50 am",34,32,93,29,ESE,6,7,,FEW038,1010.6,25.56,29.85,,,,,,,,
"Jan 22, 3:45 am",34,32,92,,ESE,5,7,,CLR,,25.56,29.85,,,,,,,,
"Jan 22, 3:40 am",34,32,92,,ESE,5,7,,CLR,,25.56,29.85,,,,,,,,
"Jan 22, 3:35 am",34,32,93,29,ESE,6,7,,CLR,,25.56,29.85,,,,,,,,
"Jan 22, 3:30 am",36,34,93,,ESE,5,7,,CLR,,25.57,29.86,,,,,,,,
"Jan 22, 3:25 am",36,34,92,,ESE,5,7,,CLR,,25.57,29.86,,,,,,,,
"Jan 22, 3:20 am",37,34,87,,SE,5,7,,CLR,,25.57,29.86,,,,,,,,
"Jan 22, 3:15 am",36,34,93,,SE,5,7,,FEW028,,25.57,29.86,,,,,,,,
"Jan 22, 3:10 am",36,34,93,31,SE,6,7,,FEW028,,25.57,29.86,,,,,,,,
"Jan 22, 3:07 am",35,33,92,,SE,5,7,,FEW028 SCT042,,25.57,29.86,,,,,,,,
"Jan 22, 3:05 am",36,34,93,,SE,5,7,,FEW028 SCT042,,25.57,29.86,,,,,,,,
"Jan 22, 3:00 am",35,33,92,,ESE,5,7,,BKN028,,25.57,29.86,,,,,,,,
"Jan 22, 2:55 am",36,33,89,,ESE,5,7,,BKN028,,25.57,29.86,,,,,,,,
"Jan 22, 2:54 am",36,33,89,,ESE,5,7,,BKN028,1010.8,25.57,29.86,,,,,,,,
"Jan 22, 2:50 am",36,34,93,,SE,3,7,,OVC028,1010.8,25.57,29.86,,,,,,,,
"Jan 22, 2:45 am",37,34,89,,SE,3,7,,OVC028,,25.57,29.86,,,,,,,,
"Jan 22, 2:40 am",37,34,89,,ESE,3,7,,OVC028,,25.57,29.86,,,,,,,,
"Jan 22, 2:35 am",36,36,100,,ESE,3,7,,OVC028,,25.57,29.86,,,,,,,,
"Jan 22, 2:30 am",36,36,100,,N,0,7,,OVC028,,25.57,29.86,,,,,,,,
"Jan 22, 2:25 am",37,35,92,,ESE,3,6,Mist,BKN028,,25.57,29.86,,,,,,,,
"Jan 22, 2:24 am",37,35,92,,ESE,3,7,,BKN028,,25.57,29.86,,,,,,,,
"Jan 22, 2:20 am",37,36,93,,E,3,6,Mist,SCT028,,25.57,29.86,,,,,,,,
"Jan 22, 2:15 am",36,34,93,,E,3,6,Mist,SCT028,,25.57,29.86,,,,,,,,
"Jan 22, 2:10 am",36,34,92,,E,5,6,Mist,SCT029,,25.57,29.86,,,,,,,,
"Jan 22, 2:05 am",37,36,93,33,E,6,6,Mist,FEW029,,25.57,29.86,,,,,,,,
"Jan 22, 2:00 am",37,35,92,,ESE,5,7,,CLR,,25.57,29.86,,,,,,,,
"Jan 22, 1:55 am",37,34,89,,ESE,5,7,,CLR,,25.57,29.86,,,,,,,,
"Jan 22, 1:54 am",37,34,89,,ESE,5,9,,FEW027 FEW065 FEW200,1010.8,25.57,29.86,,,,,,,,
"Jan 22, 1:50 am",36,34,93,,ESE,5,8,,FEW032 FEW065,1010.7,25.57,29.86,,,,,,,,
"Jan 22, 1:45 am",36,35,96,,SE,5,8,,FEW027,,25.57,29.86,,,,,,,,
"Jan 22, 1:40 am",37,35,92,,SE,5,8,,FEW027,,25.57,29.86,,,,,,,,
"Jan 22, 1:35 am",37,36,93,,ESE,5,9,,FEW027,,25.57,29.86,,,,,,,,
"Jan 22, 1:30 am",37,36,93,,ESE,3,9,,FEW027 BKN070,,25.57,29.86,,,,,,,,
"Jan 22, 1:25 am",38,36,92,,ESE,3,9,,SCT027 BKN070,,25.57,29.86,,,,,,,,
"Jan 22, 1:20 am",37,36,93,,ESE,5,9,,SCT027 BKN070,,25.57,29.86,,,,,,,,
"Jan 22, 1:15 am",38,36,92,,E,5,9,,SCT027 BKN070,,25.57,29.86,,,,,,,,
"Jan 22, 1:10 am",39,36,89,,ESE,5,10,,BKN070,,25.57,29.86,,,,,,,,
"Jan 22, 1:05 am",39,36,87,,ESE,5,10,,BKN070,,25.57,29.86,,,,,,,,
"Jan 22, 1:00 am",39,36,89,35,E,6,10,,BKN070,,25.57,29.86,,,,,,,,
"Jan 22, 12:55 am",39,36,89,,E,5,9,,OVC070,,25.57,29.86,,,,,,,,
"Jan 22, 12:54 am",39,36,89,,E,5,9,,FEW040 BKN065,1010.6,25.57,29.86,,,,,,,,
"Jan 22, 12:50 am",40,36,86,,E,5,9,,FEW044 BKN065,1010.6,25.57,29.86,,,,,,,,
"Jan 22, 12:45 am",40,36,86,,E,5,9,,FEW044 BKN070,,25.57,29.86,,,,,,,,
"Jan 22, 12:40 am",40,37,89,,E,5,8,,OVC070,,25.57,29.86,,,,,,,,
"Jan 22, 12:35 am",41,37,87,,E,5,6,Mist,OVC070,,25.57,29.86,,,,,,,,
"Jan 22, 12:30 am",39,37,93,,E,5,5,Mist,OVC070,,25.57,29.86,,,,,,,,
"Jan 22, 12:25 am",40,37,89,,ESE,3,5,Mist,OVC070,,25.57,29.86,,,,,,,,
"Jan 22, 12:20 am",40,37,89,,ESE,5,5,Mist,OVC070,,25.57,29.86,,,,,,,,
"Jan 22, 12:15 am",40,37,89,,ESE,5,7,,OVC070,,25.57,29.86,,,,,,,,
"Jan 22, 12:10 am",40,37,89,,SE,5,9,,OVC070,,25.57,29.86,,,,,,,,
"Jan 22, 12:05 am",40,37,89,36,SE,6,9,,OVC070,,25.57,29.86,,,,,,,,
"Jan 22, 12:00 am",40,37,89,,ESE,5,7,,OVC070,,25.57,29.86,,,,,,,,
"Jan 21, 11:55 pm",40,37,89,36,ESE,6,8,,OVC070,,25.57,29.86,,,,,,,,
"Jan 21, 11:54 pm",40,37,89,,ESE,5,8,,FEW040 BKN070,1010.7,25.57,29.86,,,,,,,44,32
"Jan 21, 11:50 pm",39,37,93,34,ESE,7,10,,FEW040 BKN070,1010.7,25.57,29.86,,,,,,,44,32
"Jan 21, 11:45 pm",40,36,86,35,SE,7,10,,OVC070,,25.57,29.86,,,,,,,,
"Jan 21, 11:40 pm",40,36,86,35,SE,7,10,,OVC070,,25.57,29.86,,,,,,,,
"Jan 21, 11:35 pm",39,36,87,34,SE,8,10,,BKN070,,25.57,29.86,,,,,,,,
"Jan 21, 11:30 pm",39,36,87,34,SE,8,10,,BKN070,,25.57,29.86,,,,,,,,
"Jan 21, 11:25 pm",40,36,86,34,SE,9,10,,BKN070,,25.57,29.86,,,,,,,,
"Jan 21, 11:20 pm",39,36,87,33,SE,10,10,,BKN065,,25.57,29.86,,,,,,,,
"Jan 21, 11:15 pm",41,36,81,34,SSE,12,10,,SCT070,,25.57,29.86,,,,,,,,
"Jan 21, 11:10 pm",41,37,87,34,SSE,12,10,,SCT070,,25.56,29.85,,,,,,,,
"Jan 21, 11:05 pm",39,37,93,33,SSE,10,10,,SCT070,,25.57,29.86,,,,,,,,
"Jan 21, 11:00 pm",39,37,93,33,SSE,10,10,,BKN070,,25.57,29.86,,,,,,,,
"Jan 21, 10:55 pm",39,37,93,33,SSE,10,10,,BKN070,,25.57,29.86,,,,,,,,
"Jan 21, 10:54 pm",40,37,89,33,SSE,10,10,,BKN070 BKN130,1010.9,25.57,29.86,,,0.02,,43,40,,
"Jan 21, 10:50 pm",41,37,87,35,SSE,9,10,,BKN070 BKN130,1010.8,25.57,29.86,,,0.02,,43,40,,
"Jan 21, 10:45 pm",39,37,93,33,SSE,9,10,,BKN070,,25.57,29.86,,,,,,,,
"Jan 21, 10:40 pm",41,37,86,35,SSE,9,10,,BKN070,,25.57,29.86,,,,,,,,
"Jan 21, 10:35 pm",41,37,87,36,SSE,8,10,,OVC070,,25.57,29.86,,,,,,,,
"Jan 21, 10:30 pm",41,37,87,35,SSE,10,10,,BKN070,,25.57,29.86,,,,,,,,
"Jan 21, 10:25 pm",40,37,89,34,SSE,9,9,,OVC070,,25.57,29.86,,,,,,,,
"Jan 21, 10:20 pm",39,37,93,34,SE,8,8,,OVC070,,25.57,29.86,,,,,,,,
"Jan 21, 10:15 pm",40,38,93,34,SSE,8,8,,OVC070,,25.57,29.86,,,,,,,,
"Jan 21, 10:10 pm",40,38,93,34,SSE,8,8,,OVC070,,25.57,29.86,,,,,,,,
"Jan 21, 10:05 pm",41,37,87,36,SE,8,8,,OVC070,,25.57,29.86,,,,,,,,
"Jan 21, 10:00 pm",41,37,87,35,SE,9,8,,OVC070,,25.57,29.86,,,,,,,,
"Jan 21, 9:55 pm",41,38,89,35,SE,9,9,,OVC070,,25.57,29.86,,,,,,,,
"Jan 21, 9:54 pm",41,38,89,35,SE,9,9,,SCT050 BKN065,1010.8,25.57,29.86,,,,,,,,
"Jan 21, 9:50 pm",41,37,87,35,SE,9,9,,SCT050 BKN065,1010.9,25.57,29.86,,,,,,,,
"Jan 21, 9:45 pm",41,38,89,35,SE,9,9,,FEW050 BKN065,,25.57,29.86,,,,,,,,
"Jan 21, 9:40 pm",41,38,89,36,SE,7,9,,OVC065,,25.57,29.86,,,,,,,,
"Jan 21, 9:35 pm",41,37,87,35,SE,9,10,,OVC065,,25.58,29.87,,,,,,,,
"Jan 21, 9:30 pm",41,37,87,36,SE,8,10,,OVC065,,25.58,29.87,,,,,,,,
"Jan 21, 9:25 pm",41,38,89,36,SE,8,10,,OVC060,,25.58,29.87,,,,,,,,
"Jan 21, 9:20 pm",41,37,87,36,SE,7,10,,OVC060,,25.58,29.87,,,,,,,,
"Jan 21, 9:15 pm",41,37,87,36,SE,7,10,,OVC060,,25.58,29.87,,,,,,,,
"Jan 21, 9:10 pm",42,38,85,37,SSE,8,10,,OVC055,,25.58,29.87,,,,,,,,
"Jan 21, 9:05 pm",41,37,87,36,SSE,7,10,,OVC050,,25.58,29.87,,,,,,,,
"Jan 21, 9:00 pm",42,38,85,38,SSE,7,10,,OVC050,,25.58,29.87,,,,,,,,
"Jan 21, 8:55 pm",41,39,93,36,S,7,10,,OVC050,,25.58,29.87,,,,,,,,
"Jan 21, 8:54 pm",41,39,93,36,SSE,7,9,,BKN050 OVC090,1011.4,25.58,29.87,,,,,,,,
"Jan 21, 8:50 pm",41,39,93,36,SSE,7,9,,BKN050 OVC090,1011.4,25.58,29.87,,,,,,,,
"Jan 21, 8:45 pm",41,39,93,36,SSE,7,10,,OVC050,,25.58,29.87,,,,,,,,
"Jan 21, 8:40 pm",41,39,93,36,S,7,10,,OVC050,,25.58,29.87,,,,,,,,
"Jan 21, 8:35 pm",41,39,93,36,SSE,8,9,,OVC050,,25.58,29.87,,,,,,,,
"Jan 21, 8:30 pm",41,39,93,36,SSE,7,9,,OVC050,,25.58,29.87,,,,,,,,
"Jan 21, 8:25 pm",41,39,93,36,SSE,7,8,,OVC050,,25.58,29.87,,,,,,,,
"Jan 21, 8:20 pm",41,39,93,37,SE,6,8,,OVC050,,25.58,29.87,,,,,,,,
"Jan 21, 8:15 pm",41,38,89,37,SE,6,8,,OVC050,,25.58,29.87,,,,,,,,
"Jan 21, 8:10 pm",41,38,89,36,SE,7,8,,OVC050,,25.58,29.87,,,,,,,,
"Jan 21, 8:05 pm",41,37,87,36,SE,7,7,,OVC050,,25.58,29.87,,,,,,,,
"Jan 21, 8:00 pm",41,37,87,36,SE,7,7,,OVC050,,25.58,29.87,,,,,,,,
"Jan 21, 7:55 pm",41,38,89,36,SE,7,7,,OVC050,,25.58,29.87,,,,,,,,
"Jan 21, 7:54 pm",41,38,89,36,SE,7,6,Mist,BKN049 BKN085,1011.2,25.58,29.87,,0.02,,,,,,
"Jan 21, 7:50 pm",41,39,93,36,SE,8,6,Mist,BKN049 BKN085,1011.2,25.57,29.86,,0.02,,,,,,
"Jan 21, 7:45 pm",41,39,93,36,SSE,8,6,Mist,BKN049 BKN085,,25.58,29.87,,,,,,,,
"Jan 21, 7:40 pm",41,39,93,36,SE,7,6,Mist,BKN049 OVC080,,25.58,29.87,,,,,,,,
"Jan 21, 7:35 pm",41,39,93,36,SE,7,6,Mist,BKN049 OVC080,,25.58,29.87,,,,,,,,
"Jan 21, 7:30 pm",41,39,93,37,SE,6,5,Mist,SCT048 OVC080,,25.58,29.87,,,,,,,,
"Jan 21, 7:25 pm",41,39,93,37,SSE,6,5,Mist,FEW048 OVC080,,25.58,29.87,,,,,,,,
"Jan 21, 7:20 pm",41,39,93,,SE,5,6,Mist,SCT070 OVC085,,25.57,29.86,,,,,,,,
"Jan 21, 7:15 pm",41,39,93,37,SE,6,6,Mist,SCT070 OVC080,,25.57,29.86,,,,,,,,
"Jan 21, 7:10 pm",41,39,93,36,SE,7,7,,BKN065 OVC080,,25.57,29.86,,,,,,,,
"Jan 21, 7:05 pm",41,39,93,36,SE,7,7,,BKN065 OVC080,,25.57,29.86,,,,,,,,
"Jan 21, 7:00 pm",42,39,89,38,SSE,7,7,,OVC065,,25.57,29.86,,,,,,,,
"Jan 21, 6:55 pm",42,39,89,37,SE,8,6,Mist,OVC065,,25.57,29.86,,,,,,,,
"Jan 21, 6:54 pm",42,39,89,38,SE,7,5,Mist,FEW050 BKN065 OVC080,1011.2,25.57,29.86,0.01,,,,,,,
"Jan 21, 6:50 pm",41,39,93,36,SE,7,4,Mist,OVC065,1011.3,25.57,29.86,0.01,,,,,,,
"Jan 21, 6:45 pm",41,39,93,37,SE,6,4,Mist,OVC065,,25.57,29.86,0.01,,,,,,,
"Jan 21, 6:40 pm",41,39,93,37,ESE,6,4,Mist,FEW045 OVC065,,25.57,29.86,0.01,,,,,,,
"Jan 21, 6:35 pm",41,39,93,37,ESE,6,4,Mist,FEW044 OVC065,,25.57,29.86,0.01,,,,,,,
"Jan 21, 6:30 pm",41,39,93,,E,5,3,Mist,SCT046 OVC070,,25.57,29.86,0.01,,,,,,,
"Jan 21, 6:25 pm",41,39,93,,E,5,3,"Lt rain, Mist",SCT045 BKN070 OVC080,,25.57,29.86,0.01,,,,,,,
"Jan 21, 6:20 pm",40,39,97,,N,0,3,"Lt rain, Mist",FEW030 BKN045 OVC065,,25.57,29.86,0.01,,,,,,,
"Jan 21, 6:15 pm",40,38,93,,ESE,3,3,"Lt rain, Mist",SCT030 BKN045 OVC055,,25.57,29.86,0.01,,,,,,,
"Jan 21, 6:10 pm",40,38,93,,E,3,3,"Lt rain, Mist",SCT029 SCT035 OVC045,,25.57,29.86,0.01,,,,,,,
"Jan 21, 6:05 pm",40,38,93,,E,3,3,"Lt rain, Mist",BKN031 OVC045,,25.57,29.86,T,,,,,,,
"Jan 21, 6:00 pm",40,37,89,,NE,3,3,"Lt rain, Mist",BKN030 OVC038,,25.57,29.86,T,,,,,,,
"Jan 21, 5:55 pm",40,37,89,,NNE,5,1.5,"Lt rain, Mist",OVC030,,25.57,29.86,T,,,,,,,
"Jan 21, 5:54 pm",40,37,89,,NNE,5,3,"Lt rain, Mist",BKN030 OVC050,1011.2,25.57,29.86,0.01,,,,,,,
"Jan 21, 5:50 pm",39,37,93,,N,5,3,"Lt rain, Mist",BKN028 OVC050,,25.57,29.86,0.01,,,,,,,
"Jan 21, 5:45 pm",40,37,89,,N,3,3,"Lt rain, Mist",OVC032,,25.57,29.86,0.01,,,,,,,
"Jan 21, 5:40 pm",40,38,93,,N,3,4,"Lt rain, Mist",BKN032 OVC039,,25.57,29.86,0.01,,,,,,,
"Jan 21, 5:35 pm",39,37,93,,NNW,3,4,"Lt rain, Mist",OVC033,,25.56,29.85,0.01,,,,,,,
"Jan 21, 5:30 pm",39,37,93,,N,3,4,"Lt rain, Mist",OVC033,,25.56,29.85,T,,,,,,,
"Jan 21, 5:25 pm",40,38,93,,N,3,4,"Lt rain, Mist",BKN034 OVC044,,25.56,29.85,T,,,,,,,
"Jan 21, 5:20 pm",41,38,89,,N,5,4,Mist,BKN034 OVC050,,25.56,29.85,T,,,,,,,
"Jan 21, 5:15 pm",41,38,89,,N,0,4,"Lt rain, Mist",OVC034,,25.56,29.85,T,,,,,,,
"Jan 21, 5:10 pm",42,38,85,,N,0,4,"Lt rain, Mist",OVC033,,25.56,29.85,T,,,,,,,
"Jan 21, 5:05 pm",42,38,85,,NW,3,2.5,"Lt rain, Mist",OVC031,,25.56,29.85,T,,,,,,,
"Jan 21, 5:00 pm",43,38,82,,WNW,3,3,Lt rain,OVC032,,25.56,29.85,T,,,,,,,
"Jan 21, 4:55 pm",43,38,82,,N,0,4,Lt rain,OVC032,,25.55,29.84,T,,,,,,,
"Jan 21, 4:54 pm",43,38,82,,W,3,5,Lt rain,BKN031 OVC041,1010.5,25.55,29.84,T,,0.01,,44,37,,
"Jan 21, 4:50 pm",43,37,81,,N,0,5,Lt rain,BKN031 OVC041,1010.4,25.55,29.84,T,,0.01,,44,37,,
"Jan 21, 4:45 pm",45,37,76,,N,0,6,Lt rain,OVC031,,25.55,29.84,T,,,,,,,
"Jan 21, 4:40 pm",44,38,79,,N,0,5,Lt rain,OVC031,,25.55,29.84,T,,,,,,,
"Jan 21, 4:35 pm",45,37,76,,N,0,5,Lt rain,OVC031,,25.55,29.84,T,,,,,,,
"Jan 21, 4:30 pm",45,37,76,,N,0,5,Lt rain,OVC031,,25.55,29.84,T,,,,,,,
"Jan 21, 4:25 pm",44,39,82,,N,0,5,Lt rain,OVC031,,25.55,29.84,T,,,,,,,
"Jan 21, 4:20 pm",45,37,76,,N,0,6,Lt rain,OVC031,,25.55,29.84,T,,,,,,,
"Jan 21, 4:15 pm",45,37,76,,N,0,7,,OVC031,,25.55,29.83,T,,,,,,,
"Jan 21, 4:10 pm",44,38,79,,N,0,8,,OVC032,,25.55,29.83,T,,,,,,,
"Jan 21, 4:05 pm",45,37,76,,N,0,8,Lt rain,OVC032,,25.55,29.83,T,,,,,,,
"Jan 21, 4:00 pm",45,37,76,,N,0,7,Lt rain,BKN032 OVC043,,25.55,29.83,T,,,,,,,
"Jan 21, 3:55 pm",44,38,79,,N,0,7,,BKN033 OVC043,,25.55,29.83,,,,,,,,
"Jan 21, 3:54 pm",44,38,79,,N,0,8,,BKN031 OVC044,1009.8,25.55,29.83,T,,,,,,,
"Jan 21, 3:50 pm",45,37,76,,N,0,8,,BKN031 OVC044,1009.8,25.55,29.83,T,,,,,,,
"Jan 21, 3:45 pm",44,38,79,,N,0,7,,BKN031 OVC044,,25.55,29.83,T,,,,,,,
"Jan 21, 3:40 pm",44,39,82,,N,0,7,,BKN034 OVC044,,25.55,29.83,T,,,,,,,
"Jan 21, 3:35 pm",44,39,82,,N,0,7,,BKN034 OVC044,,25.55,29.83,T,,,,,,,
"Jan 21, 3:30 pm",45,39,81,,N,0,5,Lt rain,BKN034 BKN044 OVC055,,25.55,29.83,T,,,,,,,
"Jan 21, 3:25 pm",43,39,86,,N,0,5,"Lt rain, Mist",SCT035 BKN045 OVC055,,25.55,29.83,T,,,,,,,
"Jan 21, 3:20 pm",43,40,89,,N,0,5,"Lt rain, Mist",SCT035 BKN047 OVC055,,25.55,29.83,T,,,,,,,
"Jan 21, 3:15 pm",43,40,89,,N,0,5,"Lt rain, Mist",SCT033 BKN047 OVC055,,25.55,29.83,T,,,,,,,
"Jan 21, 3:10 pm",43,40,89,,N,0,5,"Lt rain, Mist",FEW029 BKN047 OVC055,,25.55,29.83,T,,,,,,,
"Jan 21, 3:05 pm",45,39,81,,N,0,5,"Lt rain, Mist",SCT030 SCT036 OVC055,,25.54,29.82,T,,,,,,,
"Jan 21, 3:00 pm",43,39,87,,N,0,5,"Lt rain, Mist",SCT030 BKN050 OVC055,,25.54,29.82,T,,,,,,,
"Jan 21, 2:55 pm",43,39,86,,NNE,3,5,"Lt rain, Mist",SCT031 OVC050,,25.54,29.82,T,,,,,,,
"Jan 21, 2:54 pm",42,39,89,,N,3,5,"Lt rain, Mist",SCT022 BKN036 OVC050,1009.4,25.54,29.82,T,,,,,,,
"Jan 21, 2:50 pm",43,39,87,,N,3,5,"Lt rain, Mist",SCT022 BKN036 OVC050,1009.4,25.54,29.82,T,,,,,,,
"Jan 21, 2:45 pm",42,39,89,,NNW,3,5,"Lt rain, Mist",BKN030 OVC050,,25.54,29.82,T,,,,,,,
"Jan 21, 2:40 pm",42,38,85,,N,3,5,"Lt rain, Mist",SCT030 OVC050,,25.54,29.82,T,,,,,,,
"Jan 21, 2:35 pm",43,37,81,,N,3,5,Mist,FEW032 OVC055,,25.54,29.82,T,,,,,,,
"Jan 21, 2:30 pm",43,37,81,,N,5,5,Lt rain,FEW034 OVC055,,25.54,29.82,T,,,,,,,
"Jan 21, 2:25 pm",41,37,86,,NNW,3,5,"Lt rain, Mist",FEW033 OVC055,,25.54,29.82,T,,,,,,,
"Jan 21, 2:20 pm",43,37,81,,NNW,3,5,Lt rain,FEW034 OVC055,,25.54,29.82,T,,,,,,,
"Jan 21, 2:15 pm",43,37,81,,N,3,5,Lt rain,SCT034 BKN050 OVC060,,25.54,29.82,T,,,,,,,
"Jan 21, 2:10 pm",41,37,86,,N,3,5,"Lt rain, Mist",SCT034 BKN046 OVC060,,25.54,29.82,T,,,,,,,
"Jan 21, 2:05 pm",41,37,87,,N,5,5,Mist,SCT034 BKN044 OVC055,,25.54,29.82,T,,,,,,,
"Jan 21, 2:00 pm",41,37,86,,N,0,5,Mist,SCT034 BKN044 OVC055,,25.54,29.82,T,,,,,,,
"Jan 21, 1:55 pm",41,36,82,,N,3,2,"Lt rain, Mist",BKN041 OVC049,,25.54,29.82,T,,,,,,,
"Jan 21, 1:54 pm",41,36,82,,N,3,5,"Lt rain, Mist",SCT032 BKN040 OVC049,1009.3,25.54,29.82,0.01,0.01,,,,,,
"Jan 21, 1:50 pm",41,36,81,,NNW,5,5,Lt rain,SCT032 BKN040 OVC049,1009.3,25.54,29.82,0.01,0.01,,,,,,
"Jan 21, 1:45 pm",41,36,82,,NNW,3,5,Lt rain,BKN037 OVC046,,25.54,29.82,0.01,,,,,,,
"Jan 21, 1:40 pm",41,36,82,,NNW,5,5,Lt rain,SCT033 BKN042 OVC050,,25.54,29.82,T,,,,,,,
"Jan 21, 1:35 pm",41,36,81,,N,0,5,Lt rain,SCT032 BKN042 OVC050,,25.54,29.82,T,,,,,,,
"Jan 21, 1:30 pm",41,36,81,,NNW,3,6,Lt rain,BKN032 OVC044,,25.54,29.82,T,,,,,,,
"Jan 21, 1:25 pm",40,36,86,,N,0,6,"Lt rain, Mist",OVC032,,25.54,29.82,T,,,,,,,
"Jan 21, 1:20 pm",39,36,87,,WNW,3,7,Lt rain,OVC031,,25.55,29.83,T,,,,,,,
"Jan 21, 1:15 pm",39,36,87,,NW,3,7,Lt rain,OVC031,,25.55,29.83,T,,,,,,,
"Jan 21, 1:10 pm",40,35,83,,NW,3,7,Lt rain,OVC031,,25.55,29.83,T,,,,,,,
"Jan 21, 1:05 pm",39,36,87,,NW,5,7,Lt rain,OVC032,,25.55,29.83,T,,,,,,,
"Jan 21, 1:00 pm",40,35,83,,WNW,5,7,Lt rain,OVC032,,25.55,29.83,T,,,,,,,
"Jan 21, 12:55 pm",40,36,86,36,WNW,6,2.5,"Lt rain, Mist",OVC032,,25.55,29.83,T,,,,,,,
"Jan 21, 12:54 pm",40,36,86,36,W,6,7,Lt rain,BKN032 OVC055,1009.9,25.55,29.83,T,,,,,,,
"Jan 21, 12:50 pm",39,36,87,,W,5,7,,BKN032 OVC055,1009.9,25.55,29.83,T,,,,,,,
"Jan 21, 12:45 pm",40,35,83,,W,5,7,,BKN031 OVC055,,25.55,29.83,T,,,,,,,
"Jan 21, 12:40 pm",40,35,83,,W,5,7,Lt rain,SCT031 OVC050,,25.55,29.83,T,,,,,,,
"Jan 21, 12:35 pm",41,36,81,,W,5,7,Lt rain,SCT030 SCT043 OVC055,,25.55,29.83,T,,,,,,,
"Jan 21, 12:30 pm",41,36,81,,W,3,7,Lt rain,FEW030 FEW044 OVC055,,25.55,29.83,T,,,,,,,
"Jan 21, 12:25 pm",41,35,79,,W,3,7,Lt rain,FEW044 OVC055,,25.55,29.84,T,,,,,,,
"Jan 21, 12:20 pm",41,36,81,,N,0,7,Lt rain,OVC055,,25.55,29.84,T,,,,,,,
"Jan 21, 12:15 pm",41,36,81,,N,0,7,Lt rain,BKN050 OVC065,,25.55,29.84,T,,,,,,,
"Jan 21, 12:10 pm",41,36,82,,N,0,7,Lt rain,FEW034 BKN055 OVC065,,25.55,29.84,T,,,,,,,
"Jan 21, 12:05 pm",41,36,82,,N,0,7,Lt rain,OVC060,,25.55,29.84,T,,,,,,,
"Jan 21, 12:00 pm",41,36,82,,N,0,7,Lt rain,OVC065,,25.55,29.84,T,,,,,,,
"Jan 21, 11:55 am",40,36,86,,N,0,2.5,Mist,OVC065,,25.56,29.85,,,,,,,,
"Jan 21, 11:54 am",40,36,86,,N,0,7,,SCT036 OVC065,1010.2,25.56,29.85,T,,,,,,,
"Jan 21, 11:50 am",39,36,87,,N,0,7,,SCT036 OVC065,1010.2,25.56,29.85,T,,,,,,,
"Jan 21, 11:45 am",40,36,86,,N,0,7,,FEW034 FEW050 OVC065,,25.56,29.85,T,,,,,,,
"Jan 21, 11:40 am",40,35,83,,N,0,7,,FEW034 SCT050 OVC065,,25.56,29.85,T,,,,,,,
"Jan 21, 11:35 am",40,35,83,,N,0,7,,FEW034 SCT050 OVC065,,25.56,29.85,T,,,,,,,
"Jan 21, 11:30 am",39,34,81,,N,0,7,,SCT035 BKN055 OVC065,,25.56,29.85,T,,,,,,,
"Jan 21, 11:25 am",39,34,82,,NW,3,7,,SCT034 OVC055,,25.57,29.86,T,,,,,,,
"Jan 21, 11:20 am",39,34,81,,WNW,3,7,,SCT035 OVC055,,25.57,29.86,T,,,,,,,
"Jan 21, 11:15 am",37,34,87,,WNW,3,7,,FEW035 BKN055 OVC070,,25.57,29.86,T,,,,,,,
"Jan 21, 11:10 am",37,34,87,,WNW,3,7,Lt rain,FEW036 OVC055,,25.57,29.86,T,,,,,,,
"Jan 21, 11:05 am",37,34,87,,W,5,7,Lt rain,FEW036 OVC060,,25.57,29.86,T,,,,,,,
"Jan 21, 11:00 am",37,33,85,,WNW,5,7,Lt rain,FEW035 BKN055 OVC070,,25.57,29.86,T,,,,,,,
"Jan 21, 10:55 am",37,34,87,,WNW,5,2.5,"Lt rain, Mist",FEW049 BKN060 OVC075,,25.57,29.86,T,,,,,,,
"Jan 21, 10:54 am",37,33,85,32,WNW,6,7,Lt rain,SCT041 OVC065,1011,25.57,29.86,T,,T,,38,32,,
"Jan 21, 10:50 am",37,34,87,33,WNW,6,7,,SCT041 OVC065,1011.1,25.57,29.86,,,,,38,32,,
"Jan 21, 10:45 am",38,33,82,,WNW,5,6,Haze,FEW041 BKN065 OVC080,,25.57,29.86,,,,,,,,
"Jan 21, 10:40 am",37,33,85,,NW,5,6,Haze,BKN065 OVC080,,25.57,29.86,,,,,,,,
"Jan 21, 10:35 am",37,34,87,,NNW,5,6,Haze,FEW043 BKN065 OVC080,,25.57,29.86,,,,,,,,
"Jan 21, 10:30 am",37,34,87,,NNW,5,6,Haze,FEW043 SCT060 OVC075,,25.56,29.85,,,,,,,,
"Jan 21, 10:25 am",37,32,82,,NNW,5,6,Haze,SCT060 OVC070,,25.56,29.85,,,,,,,,
"Jan 21, 10:20 am",36,32,87,,N,5,6,Haze,OVC065,,25.56,29.85,,,,,,,,
"Jan 21, 10:15 am",36,32,85,30,N,7,6,Haze,OVC065,,25.56,29.85,,,,,,,,
"Jan 21, 10:10 am",37,32,82,32,NNE,6,6,Haze,OVC070,,25.56,29.85,,,,,,,,
"Jan 21, 10:05 am",37,32,81,33,NNW,6,6,Haze,OVC070,,25.56,29.85,,,,,,,,
"Jan 21, 10:00 am",37,32,81,31,NW,8,6,Haze,OVC070,,25.56,29.85,,,,,,,,
"Jan 21, 9:55 am",37,32,82,32,NW,6,3,Haze,BKN070 OVC120,,25.55,29.84,,,,,,,,
"Jan 21, 9:54 am",37,32,82,32,NW,6,6,Haze,FEW050 BKN070 BKN120,1010.5,25.55,29.84,,,,,,,,
"Jan 21, 9:50 am",36,32,87,31,NW,6,7,,FEW050 BKN070 BKN120,1010.5,25.55,29.84,,,,,,,,
"Jan 21, 9:45 am",36,32,85,,WNW,5,7,,BKN070 BKN120,,25.55,29.84,,,,,,,,
"Jan 21, 9:40 am",37,32,82,32,WNW,6,7,,SCT070 BKN120,,25.55,29.84,,,,,,,,
"Jan 21, 9:35 am",36,32,87,30,WNW,7,7,,FEW060 SCT075 BKN120,,25.55,29.84,,,,,,,,
"Jan 21, 9:30 am",37,34,87,,N,0,7,,SCT060 SCT075 BKN120,,25.55,29.83,,,,,,,,
"Jan 21, 9:25 am",36,33,89,,N,0,7,,SCT060 SCT075,,25.55,29.83,,,,,,,,
"Jan 21, 9:20 am",35,32,88,,N,0,7,,SCT065,,25.55,29.83,,,,,,,,
"Jan 21, 9:15 am",35,32,88,,E,5,7,,SCT065,,25.55,29.83,,,,,,,,
"Jan 21, 9:10 am",35,32,88,,N,0,7,,BKN065,,25.55,29.83,,,,,,,,
"Jan 21, 9:05 am",36,30,80,,N,0,7,,BKN065,,25.55,29.83,,,,,,,,
"Jan 21, 9:00 am",34,30,85,29,WNW,6,7,,BKN065,,25.55,29.83,,,,,,,,
"Jan 21, 8:55 am",34,30,85,28,WNW,7,7,,SCT070,,25.55,29.83,,,,,,,,
"Jan 21, 8:54 am",34,30,85,28,WNW,7,7,,SCT060 BKN085 BKN150,1010,25.55,29.83,,,,,,,,
"Jan 21, 8:50 am",34,30,86,28,WNW,7,7,,SCT070 SCT085,1010,25.55,29.83,,,,,,,,
"Jan 21, 8:45 am",35,31,85,28,WNW,9,7,,SCT070 BKN080,,25.55,29.83,,,,,,,,
"Jan 21, 8:40 am",36,32,85,,WNW,5,7,,SCT070 BKN080,,25.54,29.82,,,,,,,,
"Jan 21, 8:35 am",36,32,87,,N,0,7,,BKN080 OVC095,,25.54,29.82,,,,,,,,
"Jan 21, 8:30 am",36,32,87,,N,0,7,,OVC080,,25.54,29.82,,,,,,,,
"Jan 21, 8:25 am",35,31,85,,N,0,7,,OVC085,,25.54,29.82,,,,,,,,
"Jan 21, 8:20 am",36,30,80,,N,0,7,,OVC085,,25.54,29.82,,,,,,,,
"Jan 21, 8:15 am",36,32,87,,N,0,7,,OVC085,,25.54,29.82,,,,,,,,
"Jan 21, 8:10 am",36,32,87,,N,0,7,,OVC085,,25.53,29.81,,,,,,,,
"Jan 21, 8:05 am",34,32,93,,N,0,7,,OVC080,,25.53,29.81,,,,,,,,
"Jan 21, 8:00 am",35,32,88,,N,0,3,Mist,OVC080,,25.53,29.81,,,,,,,,
"Jan 21, 7:55 am",34,32,93,,N,0,3,Mist,BKN080,,25.53,29.81,,,,,,,,
"Jan 21, 7:54 am",34,32,92,,N,0,7,,FEW030 SCT075 BKN110,1009.3,25.53,29.81,,,,,,,,
"Jan 21, 7:50 am",34,32,93,,N,0,8,,SCT075 BKN110,1009.4,25.53,29.81,,,,,,,,
"Jan 21, 7:45 am",34,32,92,,N,0,8,,BKN075 BKN110,,25.53,29.81,,,,,,,,
"Jan 21, 7:40 am",34,31,88,,N,0,8,,SCT075 SCT100 SCT120,,25.53,29.81,,,,,,,,
"Jan 21, 7:35 am",34,31,88,,N,0,8,,SCT110,,25.53,29.81,,,,,,,,
"Jan 21, 7:30 am",34,31,88,,E,3,8,,BKN110,,25.53,29.81,,,,,,,,
"Jan 21, 7:25 am",34,31,88,,N,0,8,,BKN110,,25.53,29.81,,,,,,,,
"Jan 21, 7:20 am",33,31,92,,N,0,8,,BKN110,,25.53,29.81,,,,,,,,
"Jan 21, 7:15 am",33,31,92,,N,0,8,,BKN110,,25.53,29.81,,,,,,,,
"Jan 21, 7:10 am",33,31,92,,E,3,8,,BKN110,,25.53,29.81,,,,,,,,
"Jan 21, 7:05 am",34,32,92,,N,0,8,,OVC110,,25.53,29.81,,,,,,,,
"Jan 21, 7:00 am",33,31,92,,N,0,8,,OVC110,,25.53,29.81,,,,,,,,
"Jan 21, 6:55 am",33,31,92,,N,0,2.5,Mist,BKN110,,25.53,29.81,,,,,,,,
"Jan 21, 6:54 am",33,31,92,,N,0,8,,FEW060 OVC110,1009.5,25.53,29.81,,,,,,,,
"Jan 21, 6:50 am",34,30,86,,N,0,8,,FEW060 OVC110,1009.5,25.54,29.82,,,,,,,,
"Jan 21, 6:45 am",33,31,92,,N,0,8,,BKN110,,25.54,29.82,,,,,,,,
"Jan 21, 6:40 am",33,30,88,,N,0,8,,SCT110,,25.53,29.81,,,,,,,,
"Jan 21, 6:35 am",33,30,88,,WSW,3,8,,SCT110,,25.53,29.81,,,,,,,,
"Jan 21, 6:30 am",33,30,88,,WSW,5,8,,SCT120,,25.53,29.81,,,,,,,,
"Jan 21, 6:25 am",33,30,88,28,WSW,6,8,,SCT120,,25.53,29.81,,,,,,,,
"Jan 21, 6:20 am",32,30,92,26,WSW,6,8,,SCT120,,25.53,29.81,,,,,,,,
"Jan 21, 6:15 am",33,30,88,28,WSW,6,8,,BKN120,,25.53,29.81,,,,,,,,
"Jan 21, 6:10 am",32,30,92,26,W,6,8,,OVC120,,25.53,29.81,,,,,,,,
"Jan 21, 6:05 am",32,30,93,,WSW,5,8,,OVC120,,25.53,29.81,,,,,,,,
"Jan 21, 6:00 am",32,31,96,,WSW,3,8,,OVC120,,25.53,29.81,,,,,,,,
"Jan 21, 5:55 am",33,31,92,,N,0,8,,OVC110,,25.53,29.81,,,,,,,,
"Jan 21, 5:54 am",33,30,88,,N,0,8,,FEW060 OVC110,1009.1,25.53,29.81,,,,,,,,
"Jan 21, 5:50 am",32,30,93,,SW,3,8,,OVC110,1009.4,25.53,29.81,,,,,,,,
"Jan 21, 5:45 am",33,30,88,,W,3,8,,OVC110,,25.53,29.81,,,,,,,,
"Jan 21, 5:40 am",33,30,88,,W,3,8,,OVC110,,25.54,29.82,,,,,,,,
"Jan 21, 5:35 am",33,31,92,,W,3,8,,OVC100,,25.54,29.82,,,,,,,,
"Jan 21, 5:30 am",34,30,86,,N,0,8,,OVC100,,25.54,29.82,,,,,,,,
"Jan 21, 5:25 am",33,31,92,,WNW,3,8,,OVC100,,25.54,29.82,,,,,,,,
"Jan 21, 5:20 am",34,30,86,,N,0,8,,OVC100,,25.54,29.82,,,,,,,,
"Jan 21, 5:15 am",34,30,86,,N,0,8,,OVC100,,25.54,29.82,,,,,,,,
"Jan 21, 5:10 am",32,30,93,,N,0,8,,OVC110,,25.54,29.82,,,,,,,,
"Jan 21, 5:05 am",32,30,93,,N,3,8,,OVC110,,25.54,29.82,,,,,,,,
"Jan 21, 5:00 am",33,30,88,28,N,6,8,,OVC100,,25.54,29.82,,,,,,,,
"Jan 21, 4:55 am",33,30,88,,NNW,5,8,,OVC100,,25.54,29.82,,,,,,,,
"Jan 21, 4:54 am",33,30,88,,NNW,3,8,,FEW060 OVC100,1009.1,25.53,29.81,,,,,40,33,,
"Jan 21, 4:50 am",34,30,86,,NNW,3,8,,OVC100,1009.1,25.53,29.81,,,,,40,33,,
"Jan 21, 4:45 am",33,30,88,,NNW,3,8,,OVC100,,25.53,29.81,,,,,,,,
"Jan 21, 4:40 am",33,30,88,,NW,3,8,,OVC100,,25.53,29.81,,,,,,,,
"Jan 21, 4:35 am",34,30,86,,NW,3,8,,BKN100,,25.53,29.81,,,,,,,,
"Jan 21, 4:30 am",34,30,86,,N,0,8,,BKN100,,25.53,29.81,,,,,,,,
"Jan 21, 4:25 am",33,30,88,,N,0,8,,BKN100,,25.53,29.81,,,,,,,,
"Jan 21, 4:20 am",34,30,86,,N,0,8,,BKN100,,25.53,29.81,,,,,,,,
"Jan 21, 4:15 am",34,30,86,,N,0,8,,BKN095,,25.53,29.81,,,,,,,,
"Jan 21, 4:10 am",33,30,88,,N,0,8,,BKN095,,25.53,29.81,,,,,,,,
"Jan 21, 4:05 am",34,30,86,,N,0,8,,OVC095,,25.53,29.81,,,,,,,,
"Jan 21, 4:00 am",34,31,88,,WNW,3,8,,OVC095,,25.54,29.82,,,,,,,,
"Jan 21, 3:55 am",34,30,86,,NNW,3,8,,OVC095,,25.54,29.82,,,,,,,,
"Jan 21, 3:54 am",34,30,85,,NNW,3,9,,FEW065 BKN095 BKN250,1009.2,25.54,29.82,,,,,,,,
"Jan 21, 3:50 am",34,28,80,,NW,5,9,,FEW065 BKN095 BKN250,1009.4,25.54,29.82,,,,,,,,
"Jan 21, 3:45 am",34,30,85,29,NW,6,8,,OVC095,,25.54,29.82,,,,,,,,
"Jan 21, 3:40 am",34,29,82,,WNW,3,8,,FEW070 OVC095,,25.54,29.82,,,,,,,,
"Jan 21, 3:35 am",34,28,80,,W,3,8,,FEW075 OVC090,,25.54,29.82,,,,,,,,
"Jan 21, 3:30 am",34,28,80,,WSW,3,8,,FEW075 OVC090,,25.54,29.82,,,,,,,,
"Jan 21, 3:25 am",34,30,85,,SW,3,8,,FEW075 OVC090,,25.54,29.82,,,,,,,,
"Jan 21, 3:20 am",34,30,86,,N,0,5,Mist,SCT075 OVC090,,25.54,29.82,,,,,,,,
"Jan 21, 3:15 am",36,30,80,,WSW,3,6,Mist,FEW070 OVC090,,25.54,29.82,,,,,,,,
"Jan 21, 3:10 am",36,30,79,,N,0,7,,OVC090,,25.54,29.82,,,,,,,,
"Jan 21, 3:05 am",37,32,81,33,W,6,9,,OVC095,,25.54,29.82,,,,,,,,
"Jan 21, 3:00 am",39,32,76,,SSE,5,10,,OVC095,,25.54,29.82,,,,,,,,
"Jan 21, 2:55 am",39,32,75,,S,3,10,,OVC095,,25.54,29.82,,,,,,,,
"Jan 21, 2:54 am",38,32,79,,,3,10,,FEW060 BKN095 BKN250,1009,25.54,29.82,,,,,,,,
"Jan 21, 2:50 am",37,32,81,,W,3,10,,OVC095,1009,25.54,29.82,,,,,,,,
"Jan 21, 2:45 am",38,32,79,,,5,10,,BKN100,,25.54,29.82,,,,,,,,
"Jan 21, 2:40 am",38,32,79,,SSE,5,10,,BKN100,,25.54,29.82,,,,,,,,
"Jan 21, 2:35 am",37,32,81,33,SE,6,10,,BKN100,,25.54,29.82,,,,,,,,
"Jan 21, 2:30 am",37,30,75,32,ESE,7,10,,SCT100,,25.54,29.82,,,,,,,,
"Jan 21, 2:25 am",38,31,76,32,ESE,8,10,,FEW100,,25.54,29.82,,,,,,,,
"Jan 21, 2:20 am",39,32,75,34,ESE,7,10,,CLR,,25.54,29.82,,,,,,,,
"Jan 21, 2:15 am",39,32,76,32,SE,10,10,,CLR,,25.54,29.82,,,,,,,,
"Jan 21, 2:10 am",38,32,79,30,SE,12,10,,CLR,,25.54,29.82,,,,,,,,
"Jan 21, 2:05 am",37,32,81,30,SE,10,10,,CLR,,25.54,29.82,,,,,,,,
"Jan 21, 2:00 am",38,32,79,31,SE,9,10,,CLR,,25.54,29.82,,,,,,,,
"Jan 21, 1:55 am",38,32,79,31,SE,9,10,,FEW100,,25.54,29.82,,,,,,,,
"Jan 21, 1:54 am",38,32,79,31,SE,10,10,,FEW060 SCT100 SCT250,1008.6,25.54,29.82,,,,,,,,
"Jan 21, 1:50 am",37,32,81,30,SE,10,10,,FEW100,1008.6,25.54,29.82,,,,,,,,
"Jan 21, 1:45 am",38,32,79,31,SE,9,10,,CLR,,25.54,29.82,,,,,,,,
"Jan 21, 1:40 am",38,32,79,31,SE,9,10,,CLR,,25.54,29.82,,,,,,,,
"Jan 21, 1:35 am",37,30,75,31,SE,9,10,,CLR,,25.54,29.82,,,,,,,,
"Jan 21, 1:30 am",37,30,75,32,SE,7,10,,CLR,,25.54,29.82,,,,,,,,
"Jan 21, 1:25 am",38,31,76,32,ESE,8,10,,CLR,,25.54,29.82,,,,,,,,
"Jan 21, 1:20 am",37,30,75,31,ESE,9,10,,CLR,,25.54,29.82,,,,,,,,
"Jan 21, 1:15 am",37,31,78,31,ESE,8,10,,CLR,,25.54,29.82,,,,,,,,
"Jan 21, 1:10 am",38,31,76,32,ESE,8,10,,CLR,,25.54,29.82,,,,,,,,
"Jan 21, 1:05 am",37,30,75,32,ESE,7,10,,CLR,,25.54,29.82,,,,,,,,
"Jan 21, 1:00 am",38,31,76,33,SE,7,10,,CLR,,25.54,29.82,,,,,,,,
"Jan 21, 12:55 am",38,32,79,33,SE,7,10,,CLR,,25.54,29.82,,,,,,,,
"Jan 21, 12:54 am",38,32,79,33,SE,7,10,,FEW065 SCT100 BKN250,1009.6,25.54,29.82,,,,,,,,
"Jan 21, 12:50 am",37,32,81,32,SE,7,10,,CLR,1009.7,25.55,29.83,,,,,,,,
"Jan 21, 12:45 am",37,32,81,32,SE,7,10,,CLR,,25.55,29.83,,,,,,,,
"Jan 21, 12:40 am",38,32,79,33,SE,7,10,,CLR,,25.54,29.82,,,,,,,,
"Jan 21, 12:35 am",37,30,75,31,SE,8,10,,CLR,,25.55,29.83,,,,,,,,
"Jan 21, 12:30 am",37,32,81,32,SE,7,10,,CLR,,25.55,29.83,,,,,,,,
"Jan 21, 12:25 am",39,32,76,35,SE,6,10,,CLR,,25.55,29.83,,,,,,,,
"Jan 21, 12:20 am",40,32,73,35,SE,7,10,,FEW100,,25.55,29.83,,,,,,,,
"Jan 21, 12:15 am",40,32,73,34,SE,9,10,,FEW100,,25.55,29.83,,,,,,,,
"Jan 21, 12:10 am",40,32,73,33,SE,10,10,,SCT100,,25.55,29.83,,,,,,,,
"Jan 21, 12:05 am",40,32,73,33,SE,10,10,,FEW070 BKN100,,25.55,29.83,,,,,,,,
"Jan 21, 12:00 am",39,32,76,32,SE,10,10,,FEW070 BKN100,,25.55,29.83,,,,,,,,
"Jan 20, 11:55 pm",39,32,76,33,SE,9,10,,FEW070 OVC100,,25.55,29.83,,,,,,,,
"Jan 20, 11:54 pm",39,32,76,33,SE,9,10,,FEW070 BKN100,1010,25.55,29.83,,,,,,,49,30
"Jan 20, 11:50 pm",39,34,81,33,SE,9,10,,FEW070 BKN100,1010,25.55,29.84,,,,,,,49,30
"Jan 20, 11:45 pm",39,34,81,33,SE,10,10,,FEW070 BKN100,,25.55,29.84,,,,,,,,
"Jan 20, 11:40 pm",39,33,79,32,SE,10,10,,FEW070 OVC100,,25.55,29.84,,,,,,,,
"Jan 20, 11:35 pm",39,34,81,33,SE,10,10,,FEW070 OVC100,,25.55,29.84,,,,,,,,
"Jan 20, 11:30 pm",39,33,79,32,SE,10,10,,OVC100,,25.55,29.84,,,,,,,,
"Jan 20, 11:25 pm",39,32,76,33,SE,9,10,,BKN100,,25.55,29.84,,,,,,,,
"Jan 20, 11:20 pm",39,32,75,33,SE,9,10,,BKN100,,25.55,29.84,,,,,,,,
"Jan 20, 11:15 pm",39,32,76,33,SE,8,10,,BKN100,,25.55,29.84,,,,,,,,
"Jan 20, 11:10 pm",38,32,79,32,SE,8,10,,BKN100,,25.55,29.84,,,,,,,,
"Jan 20, 11:05 pm",39,32,75,34,SE,8,10,,BKN100,,25.55,29.84,,,,,,,,
"Jan 20, 11:00 pm",37,32,81,31,SE,8,10,,SCT100,,25.55,29.84,,,,,,,,
"Jan 20, 10:55 pm",38,32,79,32,SE,8,10,,FEW100,,25.55,29.84,,,,,,,,
"Jan 20, 10:54 pm",38,32,79,32,SE,8,10,,FEW080 SCT100,1010.4,25.55,29.84,,,,,46,38,,
"Jan 20, 10:50 pm",39,32,75,34,SE,7,10,,FEW080 SCT100,1010.2,25.55,29.84,,,,,46,39,,
"Jan 20, 10:45 pm",39,32,76,34,ESE,7,10,,FEW100,,25.55,29.84,,,,,,,,
"Jan 20, 10:40 pm",39,32,76,35,ESE,6,10,,FEW110,,25.55,29.84,,,,,,,,
"Jan 20, 10:35 pm",39,32,75,35,ESE,6,10,,FEW110,,25.55,29.84,,,,,,,,
"Jan 20, 10:30 pm",39,34,81,35,ESE,6,10,,FEW110,,25.55,29.84,,,,,,,,
"Jan 20, 10:25 pm",41,33,73,37,ESE,6,10,,FEW090 FEW110,,25.55,29.84,,,,,,,,
"Jan 20, 10:20 pm",41,34,75,37,ESE,6,10,,FEW090,,25.55,29.84,,,,,,,,
"Jan 20, 10:15 pm",39,34,81,35,E,6,10,,SCT090,,25.55,29.84,,,,,,,,
"Jan 20, 10:10 pm",40,33,76,35,E,7,10,,BKN090,,25.55,29.84,,,,,,,,
"Jan 20, 10:05 pm",39,34,81,35,E,6,10,,BKN085,,25.56,29.85,,,,,,,,
"Jan 20, 10:00 pm",39,33,79,35,ESE,6,10,,BKN085,,25.56,29.85,,,,,,,,
"Jan 20, 9:55 pm",39,33,79,35,ESE,6,10,,BKN085,,25.56,29.85,,,,,,,,
"Jan 20, 9:54 pm",39,33,79,35,ESE,6,10,,BKN085 BKN230,1010.5,25.56,29.85,,,,,,,,
"Jan 20, 9:50 pm",39,34,81,35,ESE,6,10,,BKN085 BKN230,1010.5,25.55,29.84,,,,,,,,
"Jan 20, 9:45 pm",39,32,76,34,SE,7,10,,BKN085,,25.55,29.84,,,,,,,,
"Jan 20, 9:40 pm",39,33,79,33,SE,8,10,,SCT085,,25.55,29.84,,,,,,,,
"Jan 20, 9:35 pm",39,34,81,34,SE,7,10,,CLR,,25.56,29.85,,,,,,,,
"Jan 20, 9:30 pm",39,34,81,35,SE,6,10,,CLR,,25.56,29.85,,,,,,,,
"Jan 20, 9:25 pm",41,34,76,37,SE,6,10,,CLR,,25.56,29.85,,,,,,,,
"Jan 20, 9:20 pm",41,34,75,,SE,5,10,,CLR,,25.56,29.85,,,,,,,,
"Jan 20, 9:15 pm",40,33,76,,SE,3,10,,CLR,,25.56,29.85,,,,,,,,
"Jan 20, 9:10 pm",41,34,75,37,SE,6,10,,CLR,,25.56,29.85,,,,,,,,
"Jan 20, 9:05 pm",43,34,70,,SE,5,10,,CLR,,25.56,29.85,,,,,,,,
"Jan 20, 9:00 pm",41,34,76,,N,0,10,,CLR,,25.56,29.85,,,,,,,,
"Jan 20, 8:55 pm",41,34,76,,SE,5,10,,CLR,,25.55,29.84,,,,,,,,
"Jan 20, 8:54 pm",41,34,76,,SE,5,10,,FEW075 SCT150,1010.1,25.55,29.84,,,,,,,,
"Jan 20, 8:50 pm",41,33,73,,ESE,5,10,,FEW075 SCT140,1010.1,25.55,29.84,,,,,,,,
"Jan 20, 8:45 pm",41,34,76,,SE,5,10,,CLR,,25.55,29.84,,,,,,,,
"Jan 20, 8:40 pm",42,34,73,38,SE,6,10,,CLR,,25.55,29.84,,,,,,,,
"Jan 20, 8:35 pm",41,34,75,,SE,5,10,,CLR,,25.55,29.84,,,,,,,,
"Jan 20, 8:30 pm",41,34,75,,SE,5,10,,CLR,,25.55,29.84,,,,,,,,
"Jan 20, 8:25 pm",41,34,76,,SE,5,10,,CLR,,25.55,29.84,,,,,,,,
"Jan 20, 8:20 pm",40,33,76,,ESE,5,10,,CLR,,25.55,29.84,,,,,,,,
"Jan 20, 8:15 pm",40,33,76,36,ESE,6,10,,CLR,,25.55,29.83,,,,,,,,
"Jan 20, 8:10 pm",41,33,73,36,ESE,7,10,,CLR,,25.55,29.83,,,,,,,,
"Jan 20, 8:05 pm",41,34,76,37,ESE,6,10,,CLR,,25.55,29.83,,,,,,,,
"Jan 20, 8:00 pm",41,34,76,37,SE,6,10,,CLR,,25.55,29.83,,,,,,,,
"Jan 20, 7:55 pm",42,34,73,37,SE,8,10,,CLR,,25.55,29.84,,,,,,,,
"Jan 20, 7:54 pm",42,34,73,37,ESE,8,10,,FEW100 FEW150,1009.7,25.55,29.84,,,,,,,,
"Jan 20, 7:50 pm",41,34,75,36,SE,7,10,,FEW100 FEW150,1009.9,25.55,29.84,,,,,,,,
"Jan 20, 7:45 pm",41,34,76,36,ESE,8,10,,CLR,,25.55,29.84,,,,,,,,
"Jan 20, 7:40 pm",41,34,76,36,ESE,8,10,,CLR,,25.55,29.84,,,,,,,,
"Jan 20, 7:35 pm",41,34,75,36,ESE,7,10,,CLR,,25.55,29.84,,,,,,,,
"Jan 20, 7:30 pm",41,34,75,36,ESE,7,10,,CLR,,25.55,29.84,,,,,,,,
"Jan 20, 7:25 pm",41,34,76,36,ESE,7,10,,CLR,,25.55,29.84,,,,,,,,
"Jan 20, 7:20 pm",41,34,75,36,ESE,7,10,,CLR,,25.55,29.84,,,,,,,,
"Jan 20, 7:15 pm",41,34,75,36,ESE,7,10,,CLR,,25.56,29.85,,,,,,,,
"Jan 20, 7:10 pm",42,34,73,38,SE,7,10,,CLR,,25.56,29.85,,,,,,,,
"Jan 20, 7:05 pm",43,34,70,39,SE,6,10,,CLR,,25.56,29.85,,,,,,,,
"Jan 20, 7:00 pm",43,35,73,39,SE,7,10,,CLR,,25.56,29.85,,,,,,,,
"Jan 20, 6:55 pm",43,35,73,38,SE,8,10,,CLR,,25.56,29.85,,,,,,,,
"Jan 20, 6:54 pm",43,35,73,38,SE,8,10,,FEW080 SCT130,1010.4,25.56,29.85,,,,,,,,
"Jan 20, 6:50 pm",43,35,73,38,SE,8,10,,FEW080 SCT130,1010.4,25.56,29.85,,,,,,,,
"Jan 20, 6:45 pm",44,35,70,40,SE,8,10,,CLR,,25.56,29.85,,,,,,,,
"Jan 20, 6:40 pm",44,35,70,39,S,9,10,,CLR,,25.56,29.85,,,,,,,,
"Jan 20, 6:35 pm",45,35,70,41,S,7,10,,CLR,,25.56,29.85,,,,,,,,
"Jan 20, 6:30 pm",43,35,73,39,S,7,10,,CLR,,25.56,29.85,,,,,,,,
"Jan 20, 6:25 pm",45,35,70,40,S,8,10,,CLR,,25.56,29.85,,,,,,,,
"Jan 20, 6:20 pm",44,35,70,39,S,10,10,,CLR,,25.56,29.85,,,,,,,,
"Jan 20, 6:15 pm",44,35,70,39,S,9,10,,FEW085,,25.56,29.85,,,,,,,,
"Jan 20, 6:10 pm",44,35,70,38,S,12,10,,FEW085,,25.56,29.85,,,,,,,,
"Jan 20, 6:05 pm",44,35,70,39,S,10,10,,SCT085,,25.56,29.85,,,,,,,,
"Jan 20, 6:00 pm",44,35,70,39,S,10,10,,SCT085,,25.56,29.85,,,,,,,,
"Jan 20, 5:55 pm",44,36,73,38,S,12,10,,BKN080,,25.56,29.85,,,,,,,,
"Jan 20, 5:54 pm",44,36,73,38,S,13,10,,BKN085 BKN130,1010.9,25.56,29.85,,,,,,,,
"Jan 20, 5:50 pm",45,35,70,38,S,13,10,,BKN085 BKN130,1010.7,25.56,29.85,,,,,,,,
"Jan 20, 5:45 pm",45,36,71,39,S,12,10,,OVC080,,25.56,29.85,,,,,,,,
"Jan 20, 5:40 pm",44,36,73,38,S,12,10,,OVC080,,25.56,29.85,,,,,,,,
"Jan 20, 5:35 pm",45,35,70,39,S,12,10,,OVC080,,25.56,29.85,,,,,,,,
"Jan 20, 5:30 pm",45,35,70,38,S,14,10,,OVC080,,25.56,29.85,,,,,,,,
"Jan 20, 5:25 pm",45,36,71,38,S,15G22,10,,OVC080,,25.56,29.85,,,,,,,,
"Jan 20, 5:20 pm",45,36,71,39,S,13G22,10,,OVC080,,25.56,29.85,,,,,,,,
"Jan 20, 5:15 pm",45,36,71,39,S,12,10,,BKN080 OVC120,,25.56,29.85,,,,,,,,
"Jan 20, 5:10 pm",45,36,71,39,S,12,10,,BKN080 OVC120,,25.56,29.85,,,,,,,,
"Jan 20, 5:05 pm",45,36,71,39,S,12,10,,BKN075 OVC120,,25.56,29.85,,,,,,,,
"Jan 20, 5:00 pm",46,36,68,,S,10,10,,BKN075 OVC120,,25.56,29.85,,,,,,,,
"Jan 20, 4:55 pm",46,36,68,,S,13,10,,FEW060 BKN075 OVC120,,25.56,29.85,,,,,,,,
"Jan 20, 4:54 pm",46,36,68,,S,12,10,,FEW050 BKN075 BKN110,1010.8,25.56,29.85,,,,,49,37,,
"Jan 20, 4:50 pm",46,35,66,,S,13G23,10,,FEW050 BKN075 BKN110,1010.7,25.56,29.85,,,,,49,37,,
"Jan 20, 4:45 pm",46,37,71,,S,15G23,10,,FEW060 BKN075 OVC100,,25.56,29.85,,,,,,,,
"Jan 20, 4:40 pm",46,37,71,,S,14,10,,FEW060 BKN075 BKN095,,25.56,29.85,,,,,,,,
"Jan 20, 4:35 pm",45,37,76,38,S,14,10,,SCT060 BKN075 OVC120,,25.57,29.86,,,,,,,,
"Jan 20, 4:30 pm",46,37,71,,S,10G16,10,,SCT060 BKN075 BKN095,,25.57,29.86,,,,,,,,
"Jan 20, 4:25 pm",46,36,68,,S,13,10,,SCT060 BKN070 BKN095,,25.57,29.86,,,,,,,,
"Jan 20, 4:20 pm",46,35,66,,S,13,10,,BKN060 BKN070 BKN120,,25.56,29.85,,,,,,,,
"Jan 20, 4:15 pm",46,35,66,,S,10,10,,BKN060 BKN070,,25.57,29.86,,,,,,,,
"Jan 20, 4:10 pm",46,36,68,,S,15,10,,BKN060 OVC075,,25.57,29.86,,,,,,,,
"Jan 20, 4:05 pm",46,35,66,,S,15,10,,OVC065,,25.57,29.86,,,,,,,,
"Jan 20, 4:00 pm",45,36,71,38,S,15,10,,OVC065,,25.57,29.86,,,,,,,,
"Jan 20, 3:55 pm",45,35,70,37,S,16G23,10,,OVC060,,25.57,29.86,,,,,,,,
"Jan 20, 3:54 pm",45,36,71,38,S,16G23,10,,BKN060 OVC075,1010.7,25.57,29.86,,,,,,,,
"Jan 20, 3:50 pm",45,35,70,38,S,15G23,10,,BKN060 OVC075,1010.7,25.57,29.86,,,,,,,,
"Jan 20, 3:45 pm",45,36,71,39,S,14,10,,OVC065,,25.57,29.86,,,,,,,,
"Jan 20, 3:40 pm",45,36,71,39,S,14G22,10,,OVC070,,25.57,29.86,,,,,,,,
"Jan 20, 3:35 pm",45,35,70,39,S,12G22,10,,OVC070,,25.56,29.85,,,,,,,,
"Jan 20, 3:30 pm",45,35,70,38,S,15,10,,OVC070,,25.56,29.85,,,,,,,,
"Jan 20, 3:25 pm",45,35,68,38,S,15,10,,OVC070,,25.56,29.85,,,,,,,,
"Jan 20, 3:20 pm",45,35,70,38,S,15,10,,BKN070 OVC090,,25.57,29.86,,,,,,,,
"Jan 20, 3:15 pm",45,35,70,38,S,15G26,10,,BKN070 OVC090,,25.57,29.86,,,,,,,,
"Jan 20, 3:10 pm",46,34,63,,S,14G30,10,,OVC070,,25.57,29.86,,,,,,,,
"Jan 20, 3:05 pm",46,34,61,,SSE,20G30,10,,BKN070 OVC090,,25.57,29.86,,,,,,,,
"Jan 20, 3:00 pm",46,34,63,,SSE,13G25,10,,BKN070 OVC095,,25.57,29.86,,,,,,,,
"Jan 20, 2:55 pm",46,34,61,,SSE,18G26,10,,BKN075 OVC095,,25.57,29.86,,,,,,,,
"Jan 20, 2:54 pm",47,34,60,,SSE,17G26,10,,FEW065 BKN075 OVC090,1010.7,25.57,29.86,,,,,,,,
"Jan 20, 2:50 pm",46,34,61,,SSE,18G26,10,,FEW065 BKN075 OVC090,1010.7,25.57,29.86,,,,,,,,
"Jan 20, 2:45 pm",47,33,58,,SSE,15G23,10,,FEW065 BKN080 OVC095,,25.57,29.86,,,,,,,,
"Jan 20, 2:40 pm",48,33,56,,S,17,10,,FEW065 SCT080 OVC095,,25.57,29.86,,,,,,,,
"Jan 20, 2:35 pm",48,32,53,,S,16G22,10,,FEW065 OVC090,,25.57,29.86,,,,,,,,
"Jan 20, 2:30 pm",48,30,50,,S,18G26,10,,SCT065 BKN075 OVC090,,25.57,29.86,,,,,,,,
"Jan 20, 2:25 pm",48,30,49,,S,16G23,10,,SCT065 BKN080 OVC100,,25.57,29.86,,,,,,,,
"Jan 20, 2:20 pm",48,30,50,,S,13,10,,BKN070 OVC090,,25.57,29.86,,,,,,,,
"Jan 20, 2:15 pm",48,30,50,,S,9,10,,BKN075 OVC090,,25.57,29.86,,,,,,,,
"Jan 20, 2:10 pm",48,29,47,,SSW,12,10,,BKN080 OVC090,,25.57,29.86,,,,,,,,
"Jan 20, 2:05 pm",48,28,46,,S,10,10,,BKN085,,25.58,29.87,,,,,,,,
"Jan 20, 2:00 pm",48,29,47,,S,12,10,,BKN090,,25.58,29.87,,,,,,,,
"Jan 20, 1:55 pm",48,28,46,,SSW,10,10,,BKN090,,25.57,29.86,,,,,,,,
"Jan 20, 1:54 pm",49,29,46,,S,10,10,,SCT060 BKN090 OVC130,1010.6,25.57,29.86,,,,,,,,
"Jan 20, 1:50 pm",48,30,50,,S,9,10,,SCT090,1010.6,25.57,29.86,,,,,,,,
"Jan 20, 1:45 pm",48,31,51,,S,13,10,,FEW090,,25.58,29.87,,,,,,,,
"Jan 20, 1:40 pm",47,31,53,,,0,10,,CLR,,25.58,29.87,,,,,,,,
"Jan 20, 1:35 pm",46,30,53,,N,0,8,,FEW120,,25.58,29.87,,,,,,,,
"Jan 20, 1:30 pm",46,32,57,,N,0,7,,FEW120,,25.58,29.87,,,,,,,,
"Jan 20, 1:25 pm",46,34,63,,NE,3,5,Haze,FEW120,,25.59,29.88,,,,,,,,
"Jan 20, 1:20 pm",45,34,66,,N,0,5,Haze,FEW120,,25.59,29.88,,,,,,,,
"Jan 20, 1:15 pm",43,34,70,,NE,3,4,Haze,FEW120,,25.59,29.88,,,,,,,,
"Jan 20, 1:10 pm",42,33,70,,NNE,5,4,Haze,FEW070 FEW120,,25.6,29.89,,,,,,,,
"Jan 20, 1:05 pm",41,32,70,,N,3,4,Haze,FEW065 FEW120,,25.6,29.89,,,,,,,,
"Jan 20, 1:00 pm",41,32,70,,N,3,3.5,Haze,FEW065 FEW075 SCT120,,25.61,29.9,,,,,,,,
"Jan 20, 12:55 pm",40,32,73,,N,0,3,Haze,FEW070 SCT120,,25.61,29.9,,,,,,,,
"Jan 20, 12:54 pm",40,33,76,,N,0,9,,SCT070 BKN120 OVC180,1012.6,25.61,29.9,,,,,,,,
"Jan 20, 12:50 pm",39,34,81,,N,0,9,,SCT070 SCT080 BKN120,1012.7,25.61,29.9,,,,,,,,
"Jan 20, 12:45 pm",39,34,81,,N,0,9,,SCT065 BKN080 BKN120,,25.61,29.91,,,,,,,,
"Jan 20, 12:40 pm",38,33,82,,N,0,9,,BKN065 BKN080 BKN120,,25.61,29.91,,,,,,,,
"Jan 20, 12:35 pm",37,30,75,,N,0,9,,BKN070 OVC080,,25.61,29.91,,,,,,,,
"Jan 20, 12:30 pm",37,30,75,,WSW,3,9,,OVC070,,25.62,29.92,,,,,,,,
"Jan 20, 12:25 pm",37,31,78,,WSW,3,9,,OVC070,,25.62,29.92,,,,,,,,
"Jan 20, 12:20 pm",37,31,78,32,,6,9,,OVC070,,25.62,29.92,,,,,,,,
"Jan 20, 12:15 pm",37,30,75,32,W,7,9,,BKN075 OVC085,,25.62,29.92,,,,,,,,
"Jan 20, 12:10 pm",38,31,76,33,W,6,9,,OVC075,,25.62,29.92,,,,,,,,
"Jan 20, 12:05 pm",37,30,75,,WNW,3,9,,OVC080,,25.62,29.92,,,,,,,,
"Jan 20, 12:00 pm",39,31,72,,W,3,9,,OVC080,,25.62,29.92,,,,,,,,
"Jan 20, 11:55 am",38,31,76,,W,3,3,Haze,BKN080 BKN090,,25.62,29.92,,,,,,,,
"Jan 20, 11:54 am",38,31,76,,W,3,9,,BKN075 BKN090 OVC180,1013.5,25.62,29.92,,,,,,,,
"Jan 20, 11:50 am",37,30,75,,WNW,3,9,,BKN080 BKN090,1013.5,25.63,29.93,,,,,,,,
"Jan 20, 11:45 am",38,31,76,,WNW,5,9,,BKN075 BKN090,,25.63,29.93,,,,,,,,
"Jan 20, 11:40 am",38,32,79,,WNW,5,9,,BKN075,,25.63,29.93,,,,,,,,
"Jan 20, 11:35 am",38,31,76,,WNW,3,9,,BKN080 BKN090,,25.63,29.93,,,,,,,,
"Jan 20, 11:30 am",38,31,76,33,WNW,6,9,,SCT075 BKN090,,25.63,29.93,,,,,,,,
"Jan 20, 11:25 am",38,31,76,,NW,5,9,,BKN080 BKN090,,25.63,29.93,,,,,,,,
"Jan 20, 11:20 am",37,30,75,33,NW,6,9,,BKN080 BKN090,,25.64,29.94,,,,,,,,
"Jan 20, 11:15 am",37,30,75,32,WNW,7,9,,SCT075 BKN090,,25.64,29.94,,,,,,,,
"Jan 20, 11:10 am",37,30,75,,NW,3,4,Haze,BKN085 BKN110,,25.64,29.94,,,,,,,,
"Jan 20, 11:05 am",39,30,70,,WNW,5,4,Haze,SCT080 BKN100 BKN110,,25.64,29.94,,,,,,,,
"Jan 20, 11:00 am",39,32,75,,N,0,4,Haze,SCT080 BKN110,,25.64,29.94,,,,,,,,
"Jan 20, 10:55 am",38,33,82,,N,0,4,Haze,FEW080 SCT110,,25.64,29.94,,,,,,,,
"Jan 20, 10:54 am",38,32,79,,N,0,9,,SCT070 BKN100 BKN180,1014.1,25.64,29.94,,,,,40,30,,
"Jan 20, 10:50 am",37,32,81,,N,0,8,,BKN100,1014.1,25.64,29.94,,,,,40,30,,
"Jan 20, 10:45 am",38,31,76,,WNW,5,8,,BKN110,,25.64,29.94,,,,,,,,
"Jan 20, 10:40 am",37,30,75,,WNW,5,8,,BKN110,,25.64,29.94,,,,,,,,
"Jan 20, 10:35 am",37,30,75,,WNW,3,8,,BKN110,,25.64,29.94,,,,,,,,
"Jan 20, 10:30 am",37,30,75,,W,5,8,,BKN110,,25.64,29.94,,,,,,,,
"Jan 20, 10:25 am",37,30,75,,WNW,5,8,,BKN110,,25.64,29.94,,,,,,,,
"Jan 20, 10:20 am",36,30,80,31,W,6,8,,BKN110,,25.64,29.94,,,,,,,,
"Jan 20, 10:15 am",36,30,80,31,W,6,8,,SCT100 BKN120,,25.64,29.94,,,,,,,,
"Jan 20, 10:10 am",36,30,79,,W,5,8,,FEW100 SCT120,,25.64,29.94,,,,,,,,
"Jan 20, 10:05 am",36,30,79,,W,5,8,,FEW100,,25.64,29.94,,,,,,,,
"Jan 20, 10:00 am",36,30,79,31,W,6,8,,SCT100,,25.64,29.94,,,,,,,,
"Jan 20, 9:55 am",37,30,75,32,W,7,8,,SCT100,,25.64,29.94,,,,,,,,
"Jan 20, 9:54 am",37,30,75,32,W,7,8,,FEW100 SCT120 BKN160,1013.9,25.64,29.94,,,,,,,,
"Jan 20, 9:50 am",37,31,78,,WNW,5,8,,FEW100 BKN120 BKN160,1013.8,25.63,29.93,,,,,,,,
"Jan 20, 9:45 am",36,31,82,,W,5,8,,FEW100 FEW120,,25.63,29.93,,,,,,,,
"Jan 20, 9:40 am",35,30,82,,WNW,5,8,,SCT110,,25.63,29.93,,,,,,,,
"Jan 20, 9:35 am",36,30,80,,WNW,3,8,,SCT110,,25.63,29.93,,,,,,,,
"Jan 20, 9:30 am",36,30,80,,W,5,8,,BKN110,,25.64,29.94,,,,,,,,
"Jan 20, 9:25 am",35,30,82,,W,3,8,,BKN110,,25.64,29.94,,,,,,,,
"Jan 20, 9:20 am",36,28,75,,W,5,8,,OVC110,,25.64,29.94,,,,,,,,
"Jan 20, 9:15 am",36,28,75,,W,5,3.5,Haze,OVC110,,25.63,29.93,,,,,,,,
"Jan 20, 9:10 am",36,29,75,,N,0,4,Haze,BKN100 BKN120,,25.63,29.93,,,,,,,,
"Jan 20, 9:05 am",36,28,75,31,W,6,4,Haze,BKN110,,25.63,29.93,,,,,,,,
"Jan 20, 9:00 am",36,29,75,,N,0,5,Haze,BKN110,,25.63,29.93,,,,,,,,
"Jan 20, 8:55 am",37,28,70,,N,0,5,Haze,BKN120,,25.63,29.93,,,,,,,,
"Jan 20, 8:54 am",38,29,70,,N,0,9,,BKN120 BKN160 BKN240,1013.7,25.63,29.93,,,,,,,,
"Jan 20, 8:50 am",37,28,70,,S,5,8,,BKN120,1013.4,25.63,29.93,,,,,,,,
"Jan 20, 8:45 am",40,29,65,36,,6,10,,BKN120,,25.63,29.93,,,,,,,,
"Jan 20, 8:40 am",40,29,65,,,0,10,,BKN120,,25.63,29.93,,,,,,,,
"Jan 20, 8:35 am",40,29,65,,,0,10,,BKN120,,25.63,29.93,,,,,,,,
"Jan 20, 8:30 am",40,29,65,34,ESE,8,10,,BKN120,,25.63,29.93,,,,,,,,
"Jan 20, 8:25 am",39,29,67,33,ESE,9,10,,SCT120,,25.63,29.93,,,,,,,,
"Jan 20, 8:20 am",39,28,65,33,ESE,10,10,,FEW120,,25.63,29.93,,,,,,,,
"Jan 20, 8:15 am",39,29,67,33,ESE,9,10,,CLR,,25.63,29.93,,,,,,,,
"Jan 20, 8:10 am",39,29,67,32,ESE,10,10,,CLR,,25.63,29.93,,,,,,,,
"Jan 20, 8:05 am",39,28,65,33,ESE,10,10,,CLR,,25.63,29.93,,,,,,,,
"Jan 20, 8:00 am",39,29,67,33,ESE,9,10,,CLR,,25.62,29.92,,,,,,,,
"Jan 20, 7:55 am",39,29,67,33,ESE,9,10,,CLR,,25.62,29.92,,,,,,,,
"Jan 20, 7:54 am",39,29,67,32,ESE,10,10,,FEW130 BKN160 BKN240,1013.3,25.63,29.93,,,,,,,,
"Jan 20, 7:50 am",39,28,65,34,ESE,8,10,,CLR,1013.4,25.63,29.93,,,,,,,,
"Jan 20, 7:45 am",37,28,70,30,ESE,10,10,,CLR,,25.63,29.93,,,,,,,,
"Jan 20, 7:40 am",37,29,72,32,ESE,7,10,,CLR,,25.63,29.93,,,,,,,,
"Jan 20, 7:35 am",37,28,70,32,ESE,7,10,,CLR,,25.63,29.93,,,,,,,,
"Jan 20, 7:30 am",37,29,72,31,ESE,8,10,,CLR,,25.63,29.93,,,,,,,,
"Jan 20, 7:25 am",37,29,72,30,ESE,9,10,,CLR,,25.63,29.93,,,,,,,,
"Jan 20, 7:20 am",37,29,72,30,E,10,10,,CLR,,25.63,29.93,,,,,,,,
"Jan 20, 7:15 am",38,29,70,30,ESE,12,10,,CLR,,25.63,29.93,,,,,,,,
"Jan 20, 7:10 am",37,30,75,30,ESE,10,10,,CLR,,25.63,29.93,,,,,,,,
"Jan 20, 7:05 am",36,30,79,29,ESE,9,10,,CLR,,25.63,29.93,,,,,,,,
"Jan 20, 7:00 am",35,30,82,28,ESE,9,9,,CLR,,25.63,29.93,,,,,,,,
"Jan 20, 6:55 am",35,30,82,27,ESE,10,8,,CLR,,25.63,29.93,,,,,,,,
"Jan 20, 6:54 am",35,30,82,28,ESE,9,7,,FEW120 BKN160 BKN250,1012.9,25.63,29.93,,,,,,,,
"Jan 20, 6:50 am",34,30,85,27,ESE,9,7,,FEW120 BKN160 BKN250,1012.9,25.63,29.93,,,,,,,,
"Jan 20, 6:45 am",32,29,88,25,ESE,8,7,,FEW120 BKN160 BKN250,,25.63,29.93,,,,,,,,
"Jan 20, 6:40 am",32,29,88,,ESE,5,7,,FEW120 BKN160 BKN250,,25.63,29.93,,,,,,,,
"Jan 20, 6:35 am",32,28,86,,ENE,5,7,,FEW120 BKN160 BKN250,,25.63,29.93,,,,,,,,
"Jan 20, 6:30 am",32,29,88,,N,0,7,,FEW120 BKN160 BKN250,,25.63,29.93,,,,,,,,
"Jan 20, 6:25 am",32,29,88,,N,0,7,,FEW120 BKN160 BKN250,,25.63,29.93,,,,,,,,
"Jan 20, 6:20 am",30,28,93,,W,3,7,,FEW120 BKN160 BKN250,,25.63,29.93,,,,,,,,
"Jan 20, 6:15 am",30,28,93,,W,5,7,,FEW120 BKN160 BKN250,,25.63,29.93,,,,,,,,
"Jan 20, 6:10 am",31,29,92,,W,3,7,,FEW120 BKN160 BKN250,,25.63,29.93,,,,,,,,
"Jan 20, 6:05 am",30,28,93,,N,0,7,,FEW120 BKN160 BKN250,,25.63,29.93,,,,,,,,
"Jan 20, 6:00 am",31,28,89,,WNW,3,7,,FEW120 BKN160 BKN250,,25.63,29.93,,,,,,,,
"Jan 20, 5:55 am",30,28,93,,WSW,3,7,,FEW120 BKN160 BKN250,,25.64,29.94,,,,,,,,
"Jan 20, 5:54 am",30,28,92,,WSW,3,7,,FEW120 BKN160 BKN250,1014.4,25.64,29.94,,,,,,,,
"Jan 20, 5:50 am",30,28,93,,N,0,7,,FEW120 BKN160 BKN250,1014.4,25.64,29.94,,,,,,,,
"Jan 20, 5:45 am",31,28,89,,WSW,5,7,,FEW110 SCT160 BKN230,,25.64,29.94,,,,,,,,
"Jan 20, 5:40 am",31,28,89,,WSW,5,7,,FEW110 SCT160 BKN230,,25.64,29.94,,,,,,,,
"Jan 20, 5:35 am",30,28,93,,WSW,3,7,,FEW110 SCT160 BKN230,,25.64,29.94,,,,,,,,
"Jan 20, 5:30 am",30,28,93,,N,0,7,,FEW110 SCT160 BKN230,,25.64,29.94,,,,,,,,
"Jan 20, 5:25 am",31,28,89,,N,0,7,,FEW110 SCT160 BKN230,,25.64,29.94,,,,,,,,
"Jan 20, 5:20 am",30,28,93,,N,0,7,,FEW110 SCT160 BKN230,,25.65,29.95,,,,,,,,
"Jan 20, 5:15 am",30,28,93,,N,0,7,,FEW110 SCT160 BKN230,,25.65,29.95,,,,,,,,
"Jan 20, 5:10 am",31,28,89,,N,0,7,,FEW110 SCT160 BKN230,,25.65,29.95,,,,,,,,
"Jan 20, 5:05 am",30,28,93,,WSW,3,7,,FEW110 SCT160 BKN230,,25.66,29.96,,,,,,,,
"Jan 20, 5:00 am",30,28,92,,N,0,7,,FEW110 SCT160 BKN230,,25.66,29.96,,,,,,,,
"Jan 20, 4:55 am",30,28,93,,N,0,7,,FEW110 SCT160 BKN230,,25.66,29.96,,,,,,,,
"Jan 20, 4:54 am",30,28,92,,N,0,7,,FEW110 SCT160 BKN230,1013.9,25.66,29.96,,,,,36,30,,
"Jan 20, 4:50 am",30,28,92,,N,0,7,,FEW110 SCT150 BKN230,1013.9,25.66,29.96,,,,,36,30,,
"Jan 20, 4:45 am",31,28,89,,N,0,7,,FEW110 SCT150 BKN230,,25.66,29.96,,,,,,,,
"Jan 20, 4:40 am",30,27,88,,NW,5,7,,FEW110 SCT150 BKN220,,25.65,29.95,,,,,,,,
"Jan 20, 4:35 am",30,27,86,,N,3,7,,FEW110 SCT150 BKN220,,25.65,29.95,,,,,,,,
"Jan 20, 4:30 am",30,28,93,,N,5,7,,FEW110 SCT150 BKN220,,25.66,29.96,,,,,,,,
"Jan 20, 4:25 am",31,28,89,,NNW,5,7,,FEW110 SCT150 BKN220,,25.66,29.96,,,,,,,,
"Jan 20, 4:20 am",30,28,93,24,N,6,7,,FEW110 SCT150 BKN220,,25.66,29.96,,,,,,,,
"Jan 20, 4:15 am",31,28,89,24,NNE,7,7,,FEW110 SCT150 BKN220,,25.66,29.96,,,,,,,,
"Jan 20, 4:10 am",32,29,88,26,NNE,7,7,,FEW110 SCT150 BKN220,,25.66,29.96,,,,,,,,
"Jan 20, 4:05 am",32,28,86,,N,0,7,,FEW110 SCT150 BKN220,,25.66,29.96,,,,,,,,
"Jan 20, 4:00 am",32,29,88,,N,0,7,,FEW110 SCT150 BKN220,,25.66,29.96,,,,,,,,
"Jan 20, 3:55 am",32,28,85,,,3,7,,FEW110 SCT150 BKN220,,25.66,29.96,,,,,,,,
"Jan 20, 3:54 am",32,28,85,,,3,7,,FEW110 SCT150 BKN220,1014.5,25.66,29.96,,,,,,,,
"Jan 20, 3:50 am",32,28,86,25,W,8,6,Mist,FEW110 SCT150 BKN220,1014.5,25.66,29.96,,,,,,,,
"Jan 20, 3:45 am",32,28,85,26,W,7,6,Mist,CLR,,25.65,29.95,,,,,,,,
"Jan 20, 3:40 am",32,29,88,,WNW,5,6,Mist,CLR,,25.65,29.95,,,,,,,,
"Jan 20, 3:35 am",34,28,80,,WSW,5,6,Mist,CLR,,25.65,29.95,,,,,,,,
"Jan 20, 3:30 am",34,28,80,,SW,5,6,Mist,CLR,,25.66,29.96,,,,,,,,
"Jan 20, 3:25 am",33,29,85,,N,0,6,Mist,CLR,,25.65,29.95,,,,,,,,
"Jan 20, 3:20 am",34,28,80,,N,0,6,Mist,CLR,,25.66,29.96,,,,,,,,
"Jan 20, 3:15 am",34,28,80,,N,0,6,Mist,CLR,,25.66,29.96,,,,,,,,
"Jan 20, 3:10 am",33,30,88,,N,0,6,Mist,CLR,,25.66,29.96,,,,,,,,
"Jan 20, 3:05 am",34,30,86,,N,0,6,Mist,CLR,,25.66,29.96,,,,,,,,
"Jan 20, 3:00 am",34,30,86,,N,0,6,Mist,CLR,,25.67,29.97,,,,,,,,
"Jan 20, 2:55 am",33,29,85,,NW,5,4,Mist,CLR,,25.67,29.97,,,,,,,,
"Jan 20, 2:54 am",33,29,85,,NW,5,7,,FEW110 BKN150 BKN200,1014.6,25.67,29.97,,,,,,,,
"Jan 20, 2:50 am",32,28,86,,NNW,3,6,Mist,CLR,1014.8,25.67,29.97,,,,,,,,
"Jan 20, 2:45 am",32,29,88,,NNW,5,6,Mist,CLR,,25.67,29.97,,,,,,,,
"Jan 20, 2:40 am",33,29,85,28,NNW,6,6,Mist,CLR,,25.67,29.98,,,,,,,,
"Jan 20, 2:35 am",34,28,80,29,NNW,6,6,Mist,CLR,,25.67,29.98,,,,,,,,
"Jan 20, 2:30 am",33,29,85,,N,0,6,Mist,CLR,,25.67,29.98,,,,,,,,
"Jan 20, 2:25 am",33,29,85,,NE,3,6,Mist,CLR,,25.67,29.98,,,,,,,,
"Jan 20, 2:20 am",34,28,80,,NNE,5,6,Mist,CLR,,25.67,29.98,,,,,,,,
"Jan 20, 2:15 am",34,28,80,29,NNE,6,6,Mist,CLR,,25.67,29.98,,,,,,,,
"Jan 20, 2:10 am",33,29,85,27,NE,7,6,Mist,CLR,,25.67,29.98,,,,,,,,
"Jan 20, 2:05 am",34,28,80,,N,3,4,Mist,CLR,,25.67,29.98,,,,,,,,
"Jan 20, 2:00 am",34,30,85,,N,5,5,Mist,CLR,,25.67,29.98,,,,,,,,
"Jan 20, 1:55 am",35,30,82,,NW,5,6,Haze,CLR,,25.67,29.98,,,,,,,,
"Jan 20, 1:54 am",35,30,82,30,NW,6,8,,SCT120 BKN150 BKN200,1014.7,25.67,29.98,,,,,,,,
"Jan 20, 1:50 am",34,28,80,28,WNW,7,7,,FEW120,1014.7,25.67,29.98,,,,,,,,
"Jan 20, 1:45 am",35,30,82,,NE,3,8,,FEW120,,25.67,29.98,,,,,,,,
"Jan 20, 1:40 am",35,30,82,,N,0,8,,FEW120,,25.67,29.98,,,,,,,,
"Jan 20, 1:35 am",34,30,86,,N,0,7,,FEW120,,25.67,29.98,,,,,,,,
"Jan 20, 1:30 am",34,29,82,,N,0,6,Haze,FEW120,,25.67,29.98,,,,,,,,
"Jan 20, 1:25 am",33,29,85,,N,0,6,Mist,FEW120,,25.67,29.98,,,,,,,,
"Jan 20, 1:20 am",33,29,85,,W,3,6,Mist,FEW120,,25.67,29.98,,,,,,,,
"Jan 20, 1:15 am",34,29,82,,N,0,6,Haze,SCT120,,25.67,29.98,,,,,,,,
"Jan 20, 1:10 am",34,29,82,,N,0,6,Haze,SCT120,,25.68,29.99,,,,,,,,
"Jan 20, 1:05 am",34,29,82,,N,0,6,Haze,FEW120,,25.68,29.99,,,,,,,,
"Jan 20, 1:00 am",34,28,80,,N,0,6,Mist,CLR,,25.69,30,,,,,,,,
"Jan 20, 12:55 am",33,29,85,,N,0,6,Mist,CLR,,25.69,30,,,,,,,,
"Jan 20, 12:54 am",33,29,85,,N,0,8,,SCT120 SCT160 BKN200,1015.9,25.69,30,,,,,,,,
"Jan 20, 12:50 am",34,29,82,,N,0,8,,SCT120 SCT160 BKN200,1015.8,25.69,30,,,,,,,,
"Jan 20, 12:45 am",34,29,82,,WSW,3,6,Haze,CLR,,25.7,30.01,,,,,,,,
"Jan 20, 12:40 am",34,29,82,,WSW,5,6,Haze,CLR,,25.7,30.01,,,,,,,,
"Jan 20, 12:35 am",34,28,80,,WSW,3,6,Haze,CLR,,25.7,30.01,,,,,,,,
"Jan 20, 12:30 am",34,28,80,,WSW,5,6,Haze,CLR,,25.7,30.01,,,,,,,,
"Jan 20, 12:25 am",34,29,82,,WSW,5,6,Haze,CLR,,25.7,30.01,,,,,,,,
"Jan 20, 12:20 am",34,29,82,,N,0,6,Haze,CLR,,25.7,30.01,,,,,,,,
"Jan 20, 12:15 am",34,30,85,,N,0,7,,CLR,,25.7,30.01,,,,,,,,
"Jan 20, 12:10 am",34,30,85,,E,3,7,,CLR,,25.7,30.01,,,,,,,,
"Jan 20, 12:05 am",34,29,82,,N,0,7,,CLR,,25.71,30.02,,,,,,,,
"Jan 20, 12:00 am",35,30,82,,N,0,7,,CLR,,25.71,30.02,,,,,,,,
"Jan 19, 11:55 pm",35,30,82,,NNE,5,7,,CLR,,25.71,30.02,,,,,,,,
"Jan 19, 11:54 pm",35,30,82,,NNE,3,9,,BKN120 BKN160,1016.7,25.71,30.02,,,,,,,50,31
"Jan 19, 11:50 pm",36,28,75,,NE,5,9,,BKN120 BKN160,1016.7,25.71,30.02,,,,,,,50,31
"Jan 19, 11:45 pm",35,29,78,,N,5,7,,CLR,,25.72,30.03,,,,,,,,
"Jan 19, 11:40 pm",35,30,82,,NNE,3,7,,CLR,,25.72,30.03,,,,,,,,
"Jan 19, 11:35 pm",35,30,82,,NE,5,7,,FEW110,,25.72,30.03,,,,,,,,
"Jan 19, 11:30 pm",34,29,82,,N,0,7,,FEW110,,25.72,30.04,,,,,,,,
"Jan 19, 11:25 pm",34,29,82,,N,0,7,,FEW110,,25.72,30.04,,,,,,,,
"Jan 19, 11:20 pm",35,29,78,,N,0,7,,FEW110,,25.72,30.04,,,,,,,,
"Jan 19, 11:15 pm",36,28,75,,N,0,7,,FEW110,,25.72,30.04,,,,,,,,
"Jan 19, 11:10 pm",36,28,75,,N,0,7,,FEW110,,25.72,30.04,,,,,,,,
"Jan 19, 11:05 pm",36,28,75,,N,0,7,,FEW120,,25.72,30.04,,,,,,,,
"Jan 19, 11:00 pm",35,29,78,,N,0,7,,FEW120,,25.72,30.04,,,,,,,,
"Jan 19, 10:55 pm",36,29,75,,N,0,8,,SCT120,,25.72,30.04,,,,,,,,
"Jan 19, 10:54 pm",36,29,75,,N,0,8,,SCT120,1017.5,25.72,30.04,,,,,41,34,,
"Jan 19, 10:50 pm",36,28,75,,N,0,8,,SCT120,1017.5,25.72,30.04,,,,,41,34,,
"Jan 19, 10:45 pm",35,29,78,,N,0,8,,BKN120,,25.72,30.04,,,,,,,,
"Jan 19, 10:40 pm",36,29,75,,N,0,7,,SCT110,,25.73,30.05,,,,,,,,
"Jan 19, 10:35 pm",36,28,75,,N,0,7,,SCT110,,25.73,30.05,,,,,,,,
"Jan 19, 10:30 pm",36,30,80,,W,3,7,,SCT110,,25.73,30.05,,,,,,,,
"Jan 19, 10:25 pm",36,30,79,,N,0,8,,BKN110,,25.73,30.05,,,,,,,,
"Jan 19, 10:20 pm",36,30,80,,SW,5,8,,BKN110,,25.73,30.05,,,,,,,,
"Jan 19, 10:15 pm",37,30,75,,SSW,3,8,,BKN110,,25.73,30.05,,,,,,,,
"Jan 19, 10:10 pm",37,30,75,,SSW,3,8,,BKN110,,25.73,30.05,,,,,,,,
"Jan 19, 10:05 pm",37,30,75,,S,3,8,,BKN110,,25.72,30.04,,,,,,,,
"Jan 19, 10:00 pm",36,30,80,31,SSE,6,8,,SCT100 BKN120,,25.73,30.05,,,,,,,,
"Jan 19, 9:55 pm",36,30,79,31,SSE,6,8,,BKN100 BKN120,,25.73,30.05,,,,,,,,
"Jan 19, 9:54 pm",36,30,79,31,SSE,6,9,,SCT095 BKN120 BKN200,1017.6,25.73,30.05,,,,,,,,
"Jan 19, 9:50 pm",36,30,80,,SSE,5,9,,BKN100 BKN120,1017.6,25.73,30.05,,,,,,,,
"Jan 19, 9:45 pm",36,30,79,,SE,5,7,,SCT100 BKN120,,25.73,30.05,,,,,,,,
"Jan 19, 9:40 pm",37,30,75,,SSE,5,8,,BKN110,,25.73,30.05,,,,,,,,
"Jan 19, 9:35 pm",36,30,80,,SSE,3,8,,SCT120,,25.73,30.05,,,,,,,,
"Jan 19, 9:30 pm",36,30,80,,N,0,8,,FEW120,,25.73,30.05,,,,,,,,
"Jan 19, 9:25 pm",36,30,79,,N,0,8,,FEW110,,25.73,30.05,,,,,,,,
"Jan 19, 9:20 pm",36,30,80,,N,0,8,,SCT110,,25.74,30.06,,,,,,,,
"Jan 19, 9:15 pm",36,30,79,,N,0,9,,SCT120,,25.74,30.06,,,,,,,,
"Jan 19, 9:10 pm",36,30,79,,N,0,9,,BKN110,,25.74,30.06,,,,,,,,
"Jan 19, 9:05 pm",36,28,75,,N,0,9,,BKN110,,25.74,30.06,,,,,,,,
"Jan 19, 9:00 pm",36,30,79,,N,0,9,,BKN110,,25.74,30.06,,,,,,,,
"Jan 19, 8:55 pm",36,29,75,,SSW,3,9,,BKN110,,25.74,30.06,,,,,,,,
"Jan 19, 8:54 pm",36,29,75,,SSW,3,9,,BKN120 BKN210,1018.2,25.74,30.06,,,,,,,,
"Jan 19, 8:50 pm",37,29,72,,N,0,9,,BKN120 BKN210,1018.2,25.74,30.06,,,,,,,,
"Jan 19, 8:45 pm",36,29,75,,N,0,9,,SCT110,,25.74,30.06,,,,,,,,
"Jan 19, 8:40 pm",36,29,75,,N,0,9,,FEW110,,25.74,30.06,,,,,,,,
"Jan 19, 8:35 pm",36,28,75,,N,0,9,,CLR,,25.74,30.06,,,,,,,,
"Jan 19, 8:30 pm",36,28,75,,N,0,9,,CLR,,25.74,30.06,,,,,,,,
"Jan 19, 8:25 pm",36,29,75,,N,0,9,,CLR,,25.75,30.07,,,,,,,,
"Jan 19, 8:20 pm",36,28,75,,N,0,9,,CLR,,25.75,30.07,,,,,,,,
"Jan 19, 8:15 pm",36,28,75,,N,0,9,,CLR,,25.75,30.07,,,,,,,,
"Jan 19, 8:10 pm",36,29,75,,N,0,9,,CLR,,25.75,30.07,,,,,,,,
"Jan 19, 8:05 pm",36,28,75,,N,0,9,,FEW120,,25.75,30.07,,,,,,,,
"Jan 19, 8:00 pm",36,29,75,,W,3,10,,FEW120,,25.76,30.08,,,,,,,,
"Jan 19, 7:55 pm",36,29,75,,WSW,5,10,,FEW110,,25.76,30.08,,,,,,,,
"Jan 19, 7:54 pm",36,29,75,,SW,5,10,,BKN110 BKN200,1019.1,25.76,30.08,,,,,,,,
"Jan 19, 7:50 pm",36,28,75,,SW,3,10,,FEW110,1019.1,25.76,30.08,,,,,,,,
"Jan 19, 7:45 pm",36,29,75,,SSW,3,10,,SCT120,,25.76,30.08,,,,,,,,
"Jan 19, 7:40 pm",36,29,75,,N,0,10,,SCT120,,25.76,30.08,,,,,,,,
"Jan 19, 7:35 pm",35,29,78,,N,0,10,,FEW120,,25.76,30.08,,,,,,,,
"Jan 19, 7:30 pm",34,28,79,,N,0,10,,CLR,,25.76,30.08,,,,,,,,
"Jan 19, 7:25 pm",36,29,75,,N,0,10,,CLR,,25.77,30.09,,,,,,,,
"Jan 19, 7:20 pm",37,29,72,,N,0,10,,CLR,,25.77,30.09,,,,,,,,
"Jan 19, 7:15 pm",36,29,75,,N,0,10,,CLR,,25.77,30.09,,,,,,,,
"Jan 19, 7:10 pm",37,29,72,,N,0,10,,CLR,,25.77,30.09,,,,,,,,
"Jan 19, 7:05 pm",37,29,72,,N,0,10,,CLR,,25.77,30.09,,,,,,,,
"Jan 19, 7:00 pm",36,29,75,,W,3,10,,FEW120,,25.78,30.1,,,,,,,,
"Jan 19, 6:55 pm",36,29,75,,WSW,3,10,,FEW120,,25.78,30.1,,,,,,,,
"Jan 19, 6:54 pm",36,29,75,,WSW,3,10,,SCT120 BKN160 BKN220,1019.8,25.78,30.1,,,,,,,,
"Jan 19, 6:50 pm",37,28,70,,W,3,10,,SCT120 BKN160 BKN220,1019.8,25.78,30.1,,,,,,,,
"Jan 19, 6:45 pm",37,29,72,,W,5,10,,FEW120,,25.78,30.1,,,,,,,,
"Jan 19, 6:40 pm",36,29,75,,W,5,10,,FEW120,,25.77,30.09,,,,,,,,
"Jan 19, 6:35 pm",37,28,70,33,W,6,10,,SCT120,,25.77,30.09,,,,,,,,
"Jan 19, 6:30 pm",37,28,70,32,W,7,10,,SCT120,,25.77,30.09,,,,,,,,
"Jan 19, 6:25 pm",37,29,72,32,W,6,10,,SCT120,,25.77,30.09,,,,,,,,
"Jan 19, 6:20 pm",36,28,73,30,WNW,8,10,,BKN120,,25.77,30.09,,,,,,,,
"Jan 19, 6:15 pm",36,28,73,31,WNW,6,10,,BKN120,,25.78,30.1,,,,,,,,
"Jan 19, 6:10 pm",37,29,72,32,WNW,7,10,,SCT120,,25.77,30.09,,,,,,,,
"Jan 19, 6:05 pm",37,29,72,32,WNW,7,10,,SCT120,,25.77,30.09,,,,,,,,
"Jan 19, 6:00 pm",38,29,70,33,WNW,6,10,,SCT120,,25.78,30.1,,,,,,,,
"Jan 19, 5:55 pm",37,29,72,32,NW,7,10,,SCT120,,25.78,30.1,,,,,,,,
"Jan 19, 5:54 pm",37,29,72,32,NW,6,10,,SCT130 BKN160 BKN220,1019.8,25.78,30.1,,,,,,,,
"Jan 19, 5:50 pm",37,28,70,33,NW,6,9,,FEW120,1020,25.78,30.1,,,,,,,,
"Jan 19, 5:45 pm",38,29,70,33,NNW,6,10,,CLR,,25.78,30.1,,,,,,,,
"Jan 19, 5:40 pm",38,29,70,33,WNW,6,10,,FEW120,,25.78,30.1,,,,,,,,
"Jan 19, 5:35 pm",39,28,65,34,NW,7,10,,FEW120,,25.78,30.1,,,,,,,,
"Jan 19, 5:30 pm",39,28,65,34,WNW,7,10,,FEW120,,25.78,30.1,,,,,,,,
"Jan 19, 5:25 pm",39,29,67,35,WNW,6,10,,FEW120,,25.78,30.11,,,,,,,,
"Jan 19, 5:20 pm",39,29,67,34,WNW,7,10,,FEW120,,25.78,30.11,,,,,,,,
"Jan 19, 5:15 pm",39,29,67,35,WNW,6,10,,SCT120,,25.78,30.1,,,,,,,,
"Jan 19, 5:10 pm",39,30,70,34,WNW,7,9,,SCT120,,25.78,30.11,,,,,,,,
"Jan 19, 5:05 pm",39,30,70,34,WNW,7,9,,FEW120,,25.78,30.11,,,,,,,,
"Jan 19, 5:00 pm",40,30,67,35,WNW,7,10,,CLR,,25.78,30.11,,,,,,,,
"Jan 19, 4:55 pm",41,31,67,,WNW,3,10,,CLR,,25.78,30.11,,,,,,,,
"Jan 19, 4:54 pm",41,31,67,,N,0,10,,FEW110 BKN140 BKN170,1019.9,25.78,30.11,,,,,50,40,,
"Jan 19, 4:50 pm",41,30,65,,N,0,10,,FEW110 BKN140 BKN170,1019.9,25.78,30.11,,,,,50,40,,
"Jan 19, 4:45 pm",41,31,67,,N,0,10,,CLR,,25.78,30.11,,,,,,,,
"Jan 19, 4:40 pm",41,31,67,,NNW,5,10,,CLR,,25.78,30.11,,,,,,,,
"Jan 19, 4:35 pm",41,30,65,,N,5,10,,CLR,,25.78,30.11,,,,,,,,
"Jan 19, 4:30 pm",43,30,61,,N,5,10,,CLR,,25.78,30.11,,,,,,,,
"Jan 19, 4:25 pm",42,31,64,,NNW,5,10,,CLR,,25.78,30.11,,,,,,,,
"Jan 19, 4:20 pm",43,30,61,39,N,6,10,,CLR,,25.78,30.11,,,,,,,,
"Jan 19, 4:15 pm",43,30,61,39,N,6,10,,CLR,,25.78,30.11,,,,,,,,
"Jan 19, 4:10 pm",43,30,61,39,N,7,10,,CLR,,25.78,30.11,,,,,,,,
"Jan 19, 4:05 pm",43,30,61,39,N,6,10,,CLR,,25.79,30.12,,,,,,,,
"Jan 19, 4:00 pm",43,30,60,39,NNW,6,10,,CLR,,25.79,30.12,,,,,,,,
"Jan 19, 3:55 pm",43,31,62,,NNW,5,10,,CLR,,25.79,30.12,,,,,,,,
"Jan 19, 3:54 pm",43,31,62,,NNW,5,10,,FEW120 SCT180 BKN240,1020.1,25.79,30.12,,,,,,,,
"Jan 19, 3:50 pm",43,30,61,,NNW,5,10,,FEW120 SCT180 BKN240,1020.1,25.79,30.12,,,,,,,,
"Jan 19, 3:45 pm",43,31,62,39,N,6,10,,CLR,,25.79,30.12,,,,,,,,
"Jan 19, 3:40 pm",43,31,62,38,N,8,10,,CLR,,25.79,30.12,,,,,,,,
"Jan 19, 3:35 pm",43,30,61,38,N,8,10,,CLR,,25.79,30.12,,,,,,,,
"Jan 19, 3:30 pm",43,30,61,38,N,8,10,,CLR,,25.8,30.13,,,,,,,,
"Jan 19, 3:25 pm",44,31,60,40,N,8,10,,CLR,,25.8,30.13,,,,,,,,
"Jan 19, 3:20 pm",45,30,57,41,N,7,10,,CLR,,25.8,30.13,,,,,,,,
"Jan 19, 3:15 pm",45,30,57,40,N,8,10,,CLR,,25.81,30.14,,,,,,,,
"Jan 19, 3:10 pm",45,31,58,41,N,7,10,,CLR,,25.81,30.14,,,,,,,,
"Jan 19, 3:05 pm",45,30,57,41,N,6,10,,CLR,,25.81,30.14,,,,,,,,
"Jan 19, 3:00 pm",46,30,53,,N,6,10,,CLR,,25.81,30.14,,,,,,,,
"Jan 19, 2:55 pm",46,30,53,,NNW,6,10,,CLR,,25.81,30.14,,,,,,,,
"Jan 19, 2:54 pm",46,31,55,,N,6,10,,FEW120 SCT160 BKN230,1020.5,25.81,30.14,,,,,,,,
"Jan 19, 2:50 pm",46,30,53,,N,6,10,,FEW120 SCT160 BKN230,1020.5,25.81,30.14,,,,,,,,
"Jan 19, 2:45 pm",46,31,55,,N,8,10,,CLR,,25.81,30.14,,,,,,,,
"Jan 19, 2:40 pm",49,29,46,,N,7,10,,CLR,,25.81,30.14,,,,,,,,
"Jan 19, 2:35 pm",48,28,46,,N,0,10,,CLR,,25.81,30.14,,,,,,,,
"Jan 19, 2:30 pm",50,28,43,,N,0,10,,CLR,,25.81,30.14,,,,,,,,
"Jan 19, 2:25 pm",50,30,46,,N,0,10,,CLR,,25.81,30.14,,,,,,,,
"Jan 19, 2:20 pm",50,30,46,,N,0,10,,CLR,,25.82,30.15,,,,,,,,
"Jan 19, 2:15 pm",50,30,46,,N,0,10,,CLR,,25.82,30.15,,,,,,,,
"Jan 19, 2:10 pm",50,30,46,,N,0,10,,CLR,,25.82,30.15,,,,,,,,
"Jan 19, 2:05 pm",48,30,50,,N,0,10,,CLR,,25.82,30.15,,,,,,,,
"Jan 19, 2:00 pm",50,31,48,,N,0,10,,CLR,,25.82,30.15,,,,,,,,
"Jan 19, 1:55 pm",48,31,51,,N,0,10,,CLR,,25.82,30.15,,,,,,,,
"Jan 19, 1:54 pm",48,31,51,,N,0,10,,FEW100 FEW120 BKN230,1020.7,25.83,30.16,,,,,,,,
"Jan 19, 1:50 pm",46,31,55,,N,0,10,,CLR,1021.1,25.83,30.16,,,,,,,,
"Jan 19, 1:45 pm",46,31,55,,N,0,10,,CLR,,25.83,30.16,,,,,,,,
"Jan 19, 1:40 pm",45,31,58,,N,0,10,,CLR,,25.84,30.17,,,,,,,,
"Jan 19, 1:35 pm",44,31,60,,W,3,10,,CLR,,25.84,30.17,,,,,,,,
"Jan 19, 1:30 pm",43,31,62,,W,5,10,,CLR,,25.84,30.17,,,,,,,,
"Jan 19, 1:25 pm",43,31,62,,W,5,10,,CLR,,25.84,30.17,,,,,,,,
"Jan 19, 1:20 pm",43,30,61,39,WSW,6,10,,CLR,,25.84,30.17,,,,,,,,
"Jan 19, 1:15 pm",43,28,56,39,SW,6,10,,CLR,,25.84,30.17,,,,,,,,
"Jan 19, 1:10 pm",43,29,57,,SSW,3,10,,CLR,,25.84,30.18,,,,,,,,
"Jan 19, 1:05 pm",45,28,53,,N,0,10,,CLR,,25.84,30.18,,,,,,,,
"Jan 19, 1:00 pm",43,28,55,,N,0,10,,FEW100,,25.84,30.18,,,,,,,,
"Jan 19, 12:55 pm",43,27,53,,N,0,10,,SCT100,,25.84,30.18,,,,,,,,
"Jan 19, 12:54 pm",43,27,53,,N,0,10,,BKN100 BKN120,1022,25.84,30.18,,,,,,,,
"Jan 19, 12:50 pm",43,26,52,,N,0,10,,BKN100 BKN120,1022,25.84,30.18,,,,,,,,
"Jan 19, 12:45 pm",43,27,53,,N,0,10,,BKN100,,25.84,30.18,,,,,,,,
"Jan 19, 12:40 pm",42,28,57,,N,0,10,,BKN100,,25.84,30.18,,,,,,,,
"Jan 19, 12:35 pm",43,28,56,,N,0,10,,OVC100,,25.85,30.19,,,,,,,,
"Jan 19, 12:30 pm",43,28,55,,ESE,3,10,,OVC110,,25.85,30.19,,,,,,,,
"Jan 19, 12:25 pm",44,27,51,,N,0,10,,OVC110,,25.85,30.19,,,,,,,,
"Jan 19, 12:20 pm",43,26,52,,N,0,10,,OVC110,,25.85,30.19,,,,,,,,
"Jan 19, 12:15 pm",43,26,52,,N,0,10,,OVC110,,25.86,30.2,,,,,,,,
"Jan 19, 12:10 pm",44,27,51,,ESE,3,10,,BKN110,,25.86,30.2,,,,,,,,
"Jan 19, 12:05 pm",43,27,53,,N,0,10,,BKN120,,25.86,30.2,,,,,,,,
"Jan 19, 12:00 pm",41,28,60,,N,0,10,,BKN120,,25.87,30.21,,,,,,,,
"Jan 19, 11:55 am",41,28,60,,N,0,10,,BKN120,,25.87,30.21,,,,,,,,
"Jan 19, 11:54 am",41,28,60,,N,0,10,,FEW095 BKN120,1023.2,25.87,30.21,,,,,,,,
"Jan 19, 11:50 am",41,28,61,,E,3,10,,FEW095 BKN120,1023.2,25.87,30.21,,,,,,,,
"Jan 19, 11:45 am",41,28,60,,E,3,10,,FEW120,,25.87,30.21,,,,,,,,
"Jan 19, 11:40 am",40,28,62,36,E,6,10,,FEW120,,25.87,30.21,,,,,,,,
"Jan 19, 11:35 am",41,28,61,37,E,6,10,,CLR,,25.87,30.21,,,,,,,,
